{"type":"Topology","arcs":[[[108,1064],[-1,0]],[[107,1064],[-107,15]],[[0,1079],[0,96]],[[0,1175],[27,74]],[[27,1249],[70,-13],[55,71],[14,95]],[[166,1402],[28,-43]],[[194,1359],[-48,-194]],[[146,1165],[-38,-101]],[[2027,1302],[-41,84],[57,41],[24,-53]],[[2067,1374],[31,-40]],[[2098,1334],[-8,-9]],[[2090,1325],[-63,-23]],[[521,2454],[-26,-67]],[[495,2387],[-85,18]],[[410,2405],[57,62]],[[467,2467],[54,-13]],[[2535,959],[12,-2]],[[2547,957],[27,-94]],[[2574,863],[0,-30]],[[2574,833],[-15,-54]],[[2559,779],[-32,-61]],[[2527,718],[-114,20]],[[2413,738],[6,110]],[[2419,848],[77,46],[-21,36]],[[2475,930],[60,29]],[[1285,13],[-87,25],[12,118]],[[1210,156],[37,48],[99,2],[19,-43],[-55,-56]],[[1310,107],[-25,-94]],[[2959,1974],[-91,20]],[[2868,1994],[-35,27]],[[2833,2021],[-35,116]],[[2798,2137],[2,104],[112,-20]],[[2912,2221],[81,-33]],[[2993,2188],[-13,-74],[55,-17]],[[3035,2097],[5,-56]],[[3040,2041],[-81,-67]],[[1928,213],[-44,43]],[[1884,256],[55,18]],[[1939,274],[-11,-61]],[[2353,1027],[-76,-6]],[[2277,1021],[38,73]],[[2315,1094],[33,73]],[[2348,1167],[12,8]],[[2360,1175],[28,-13]],[[2388,1162],[-4,-31]],[[2384,1131],[-4,-60]],[[2380,1071],[-27,-44]],[[2179,633],[5,-59],[76,35]],[[2260,609],[5,-7]],[[2265,602],[2,-103]],[[2267,499],[-27,-13]],[[2240,486],[-170,32]],[[2070,518],[-25,2]],[[2045,520],[58,93]],[[2103,613],[76,20]],[[337,1846],[-179,50]],[[158,1896],[-4,0]],[[154,1896],[12,83]],[[166,1979],[46,-1]],[[212,1978],[137,-87],[-12,-45]],[[2505,1665],[-49,-44]],[[2456,1621],[-57,54]],[[2399,1675],[-25,37]],[[2374,1712],[28,64]],[[2402,1776],[89,31]],[[2491,1807],[17,-96]],[[2508,1711],[-3,-46]],[[2007,878],[-13,-26]],[[1994,852],[-88,16]],[[1906,868],[-9,15]],[[1897,883],[48,69]],[[1945,952],[62,1],[0,-75]],[[368,702],[-33,16]],[[335,718],[-13,95]],[[322,813],[40,12]],[[362,825],[59,-41]],[[421,784],[-53,-82]],[[1945,952],[-1,38]],[[1944,990],[80,158]],[[2024,1148],[84,-108]],[[2108,1040],[-48,-34],[-2,-101]],[[2058,905],[-25,-36]],[[2033,869],[-26,9]],[[1278,1126],[-71,-28]],[[1207,1098],[-17,12]],[[1190,1110],[1,81]],[[1191,1191],[26,200]],[[1217,1391],[17,94]],[[1234,1485],[79,19]],[[1313,1504],[1,1]],[[1314,1505],[104,-65]],[[1418,1440],[-56,-180],[-35,-15]],[[1327,1245],[-49,-119]],[[3065,1943],[-11,-96]],[[3054,1847],[9,-43]],[[3063,1804],[-95,18]],[[2968,1822],[-32,23]],[[2936,1845],[11,51]],[[2947,1896],[43,35]],[[2990,1931],[75,12]],[[3063,1804],[35,-49],[-83,-66]],[[3015,1689],[-53,67],[6,66]],[[2452,1326],[17,-16]],[[2469,1310],[31,-29]],[[2500,1281],[-80,-37]],[[2420,1244],[-90,59]],[[2330,1303],[45,43]],[[2375,1346],[77,-20]],[[2469,1310],[32,21],[-1,-50]],[[2240,486],[-30,-34]],[[2210,452],[-140,66]],[[2711,498],[12,-24]],[[2723,474],[3,-89]],[[2726,385],[-22,-96]],[[2704,289],[-136,-26],[-21,103],[33,0]],[[2580,366],[41,131]],[[2621,497],[90,1]],[[1375,603],[-100,-16]],[[1275,587],[-39,11]],[[1236,598],[26,156],[-83,13]],[[1179,767],[16,51],[96,-16],[78,76]],[[1369,878],[57,-96]],[[1426,782],[14,-34]],[[1440,748],[-66,-58],[1,-87]],[[1082,769],[-12,-76],[68,-93]],[[1138,600],[-57,26]],[[1081,626],[-140,19]],[[941,645],[-37,127]],[[904,772],[178,-3]],[[2575,1250],[-13,-26]],[[2562,1224],[12,88]],[[2574,1312],[1,-62]],[[51,132],[-50,68]],[[1,200],[178,102]],[[179,302],[-7,-37]],[[172,265],[-121,-133]],[[1994,541],[-4,-5]],[[1990,536],[-41,51]],[[1949,587],[118,37]],[[2067,624],[1,-4]],[[2068,620],[-74,-79]],[[2045,520],[-3,-2]],[[2042,518],[-48,23]],[[2068,620],[35,-7]],[[1126,955],[28,-30]],[[1154,925],[-24,-122]],[[1130,803],[-29,49],[-109,62]],[[992,914],[-59,76]],[[933,990],[95,-43],[11,71]],[[1039,1018],[87,-63]],[[794,2120],[-26,86]],[[768,2206],[84,169]],[[852,2375],[48,49]],[[900,2424],[66,-19],[82,-100],[114,-70]],[[1162,2235],[9,-36]],[[1171,2199],[-39,-72]],[[1132,2127],[-31,-38]],[[1101,2089],[-42,19],[-173,-30],[-92,42]],[[2912,2221],[33,127]],[[2945,2348],[105,13]],[[3050,2361],[0,-10]],[[3050,2351],[1,-110]],[[3051,2241],[6,-63],[-64,10]],[[2574,833],[-3,-12]],[[2571,821],[-12,-42]],[[586,2700],[-12,37]],[[574,2737],[0,1]],[[574,2738],[173,0]],[[747,2738],[15,-10]],[[762,2728],[-95,-67],[-81,39]],[[1679,2280],[-87,-95]],[[1592,2185],[-26,-15]],[[1566,2170],[-126,-31],[11,64]],[[1451,2203],[7,97],[48,58]],[[1506,2358],[28,12],[145,-90]],[[1743,914],[27,-21]],[[1770,893],[-12,-90]],[[1758,803],[-101,42]],[[1657,845],[1,1]],[[1658,846],[17,84],[68,-16]],[[768,2206],[-16,34]],[[752,2240],[-95,265]],[[657,2505],[81,29],[18,-50]],[[756,2484],[14,-85],[82,-24]],[[2987,1009],[-23,0]],[[2964,1009],[-64,31]],[[2900,1040],[9,122]],[[2909,1162],[27,24]],[[2936,1186],[112,-138]],[[3048,1048],[-42,-26]],[[3006,1022],[-19,-13]],[[1758,803],[39,-20],[10,-120]],[[1807,663],[9,-13]],[[1816,650],[-62,-23]],[[1754,627],[-26,54]],[[1728,681],[-75,161]],[[1653,842],[4,3]],[[2769,2652],[61,-47]],[[2830,2605],[-67,-68],[16,-113],[-28,-43]],[[2751,2381],[-122,-18],[-63,40]],[[2566,2403],[-118,63]],[[2448,2466],[45,20],[-29,64],[18,106]],[[2482,2656],[81,7],[63,58]],[[2626,2721],[49,-53],[94,-16]],[[1327,1245],[74,-78],[-16,-117]],[[1385,1050],[-107,76]],[[2091,183],[-10,-36]],[[2081,147],[-36,8]],[[2045,155],[-44,52]],[[2001,207],[50,43]],[[2051,250],[40,-67]],[[1715,414],[-83,-54]],[[1632,360],[-63,77]],[[1569,437],[3,1]],[[1572,438],[52,-18],[6,116]],[[1630,536],[84,50]],[[1714,586],[47,-142]],[[1761,444],[-46,-30]],[[2042,518],[34,-116]],[[2076,402],[-60,-64]],[[2016,338],[-99,6]],[[1917,344],[-79,114]],[[1838,458],[63,8]],[[1901,466],[89,70]],[[1901,466],[-21,97],[38,15]],[[1918,578],[31,9]],[[2375,1346],[38,44],[39,-64]],[[1285,935],[-90,9]],[[1195,944],[15,95]],[[1210,1039],[85,-18]],[[1295,1021],[-10,-86]],[[212,1978],[44,170]],[[256,2148],[16,114]],[[272,2262],[81,-80],[25,86]],[[378,2268],[96,-1],[10,36]],[[484,2303],[83,-48]],[[567,2255],[-56,-43],[-4,-85]],[[507,2127],[24,-54],[-27,-180]],[[504,1893],[-100,15],[-13,-87],[90,-44]],[[481,1777],[-146,33]],[[335,1810],[2,36]],[[1852,92],[-14,43]],[[1838,135],[2,20]],[[1840,155],[82,46]],[[1922,201],[35,-33]],[[1957,168],[-45,-51],[41,-44]],[[1953,73],[-57,-73],[-45,9],[1,83]],[[3006,1022],[93,-80]],[[3099,942],[8,-10]],[[3107,932],[-72,-3]],[[3035,929],[-36,7]],[[2999,936],[-16,4]],[[2983,940],[4,69]],[[3048,1048],[1,2]],[[3049,1050],[101,-59]],[[3150,991],[-51,-49]],[[2983,940],[-56,9]],[[2927,949],[-76,12]],[[2851,961],[0,43]],[[2851,1004],[113,5]],[[276,875],[-24,19]],[[252,894],[-73,31]],[[179,925],[58,89]],[[237,1014],[58,58]],[[295,1072],[91,-79]],[[386,993],[-15,-30]],[[371,963],[-95,-88]],[[108,1064],[129,-50]],[[179,925],[-127,40]],[[52,965],[55,99]],[[194,1359],[144,-5],[8,-44]],[[346,1310],[3,-106]],[[349,1204],[-95,-15]],[[254,1189],[-108,-24]],[[2580,366],[-74,48]],[[2506,414],[-40,91],[65,67]],[[2531,572],[90,-75]],[[1910,1395],[-27,5]],[[1883,1400],[-10,78]],[[1873,1478],[61,-49]],[[1934,1429],[-24,-34]],[[2152,316],[58,136]],[[2210,452],[79,-15]],[[2289,437],[-66,-133]],[[2223,304],[-71,12]],[[3035,929],[33,-24]],[[3068,905],[1,-92]],[[3069,813],[-81,28]],[[2988,841],[11,95]],[[3051,2241],[69,-29]],[[3120,2212],[21,-19]],[[3141,2193],[-10,-59]],[[3131,2134],[-3,-20]],[[3128,2114],[-93,-17]],[[154,1896],[-60,14],[3,181],[-62,-38]],[[35,2053],[59,61]],[[94,2114],[84,-41],[-12,-94]],[[1835,1026],[-44,14]],[[1791,1040],[41,162]],[[1832,1202],[77,-12]],[[1909,1190],[-33,-156]],[[1876,1034],[-41,-8]],[[1876,1034],[-1,-40]],[[1875,994],[-44,-4]],[[1831,990],[4,36]],[[272,788],[-16,-52]],[[256,736],[-76,53]],[[180,789],[4,25]],[[184,814],[6,64],[60,-10]],[[250,868],[22,-80]],[[1934,1429],[40,17],[-38,-105]],[[1936,1341],[-26,54]],[[496,876],[-41,-37]],[[455,839],[14,95]],[[469,934],[36,-16],[28,102]],[[533,1020],[79,-12]],[[612,1008],[189,-38]],[[801,970],[-121,-102]],[[680,868],[-97,-21],[-87,29]],[[386,993],[49,44]],[[435,1037],[98,-17]],[[469,934],[-98,29]],[[1396,1664],[-4,-27],[-136,24]],[[1256,1661],[3,34]],[[1259,1695],[137,-31]],[[2660,1554],[-43,8]],[[2617,1562],[-29,79]],[[2588,1641],[41,24]],[[2629,1665],[70,0]],[[2699,1665],[29,-35]],[[2728,1630],[-48,-61]],[[2680,1569],[-20,-15]],[[2380,1071],[80,-19]],[[2460,1052],[57,4]],[[2517,1056],[-13,-31]],[[2504,1025],[-36,-33]],[[2468,992],[-120,-31]],[[2348,961],[5,66]],[[1906,868],[-18,-162]],[[1888,706],[-12,0]],[[1876,706],[-69,-43]],[[1770,893],[127,-10]],[[1940,1271],[16,-32]],[[1956,1239],[-44,-35]],[[1912,1204],[28,67]],[[435,1037],[31,38]],[[466,1075],[20,71]],[[486,1146],[68,0],[68,-63]],[[622,1083],[-10,-75]],[[622,1083],[7,47]],[[629,1130],[82,-56],[78,2]],[[789,1076],[65,-73]],[[854,1003],[2,-2]],[[856,1001],[-55,-31]],[[1994,852],[-9,-71]],[[1985,781],[-97,-75]],[[1566,2170],[-48,-56],[44,-145],[40,-16]],[[1602,1953],[-29,-43]],[[1573,1910],[-65,46],[-76,-31]],[[1432,1925],[-91,21]],[[1341,1946],[-44,-11]],[[1297,1935],[-48,49]],[[1249,1984],[74,38],[-15,137]],[[1308,2159],[143,44]],[[1939,274],[-22,70]],[[2016,338],[35,-88]],[[2001,207],[-44,-39]],[[1922,201],[6,12]],[[66,590],[-66,-75]],[[0,515],[0,97]],[[0,612],[66,-22]],[[789,1076],[55,43]],[[844,1119],[8,-44]],[[852,1075],[20,-60]],[[872,1015],[-18,-12]],[[1957,168],[27,-56]],[[1984,112],[-31,-39]],[[368,702],[-13,-30]],[[355,672],[-5,1]],[[350,673],[-177,-13]],[[173,660],[115,47]],[[288,707],[47,11]],[[2605,2019],[47,-50],[121,-7],[-33,-74],[-78,23]],[[2662,1911],[-95,30]],[[2567,1941],[-8,23]],[[2559,1964],[-30,26]],[[2529,1990],[76,29]],[[900,2424],[-7,85],[-64,50]],[[829,2559],[143,77],[7,71]],[[979,2707],[34,1],[92,-103],[106,0],[63,39]],[[1274,2644],[54,-91]],[[1328,2553],[-53,-108]],[[1275,2445],[-24,-91],[-89,-119]],[[2680,1776],[-61,0]],[[2619,1776],[19,28]],[[2638,1804],[-16,43]],[[2622,1847],[60,4]],[[2682,1851],[86,26],[7,-74],[-95,-27]],[[179,302],[14,93]],[[193,395],[42,58],[96,39]],[[331,492],[70,74]],[[401,566],[102,-10]],[[503,556],[-49,-136],[7,-98]],[[461,322],[-192,60],[-90,-80]],[[52,965],[-11,-55]],[[41,910],[-41,45]],[[0,955],[0,124]],[[0,1175],[0,79]],[[0,1254],[27,-5]],[[2851,961],[5,-74]],[[2856,887],[-107,-15]],[[2749,872],[-31,29]],[[2718,901],[46,108]],[[2764,1009],[36,-2]],[[2800,1007],[51,-3]],[[2402,1776],[-58,-14],[-89,73]],[[2255,1835],[53,64]],[[2308,1899],[103,9],[148,56]],[[2567,1941],[9,-27]],[[2576,1914],[-63,-87]],[[2513,1827],[-22,-20]],[[2255,1835],[-36,-14]],[[2219,1821],[19,77]],[[2238,1898],[70,1]],[[1679,2280],[63,-24]],[[1742,2256],[-38,-104]],[[1704,2152],[-112,33]],[[1328,2553],[27,63],[88,64],[140,22]],[[1583,2702],[-65,-139]],[[1518,2563],[5,-110],[-33,-11]],[[1490,2442],[-127,-66],[-88,69]],[[1190,1110],[-35,24],[-29,-179]],[[1039,1018],[15,109],[-96,3]],[[958,1130],[30,52]],[[988,1182],[37,58]],[[1025,1240],[97,-60]],[[1122,1180],[69,11]],[[2891,333],[-27,-100]],[[2864,233],[-43,-13]],[[2821,220],[-27,70],[39,57],[58,-14]],[[2517,1056],[58,5]],[[2575,1061],[27,-19]],[[2602,1042],[-35,-29]],[[2567,1013],[-21,3]],[[2546,1016],[-42,9]],[[941,645],[-76,-15]],[[865,630],[2,22],[-244,-2],[3,57]],[[626,707],[121,35],[-19,122]],[[728,864],[70,59],[5,-53],[98,-48]],[[901,822],[3,-50]],[[2067,1374],[63,34],[-8,-67]],[[2122,1341],[-24,-7]],[[1474,1048],[48,9]],[[1522,1057],[2,-57],[-98,-97],[-55,18]],[[1371,921],[5,65]],[[1376,986],[6,39]],[[1382,1025],[92,23]],[[1876,706],[9,-47]],[[1885,659],[-69,-9]],[[3015,1689],[-70,40],[-24,94]],[[2921,1823],[15,22]],[[3069,813],[-61,-35]],[[3008,778],[-59,30]],[[2949,808],[0,44]],[[2949,852],[39,-11]],[[1234,1485],[10,70]],[[1244,1555],[69,-51]],[[0,2586],[14,3]],[[14,2589],[95,-1]],[[109,2588],[40,-149]],[[149,2439],[-107,33],[-42,-24]],[[0,2448],[0,138]],[[3221,2313],[-14,49]],[[3207,2362],[8,19]],[[3215,2381],[43,45],[-20,91]],[[3238,2517],[44,-7]],[[3282,2510],[51,-119],[71,-40],[-183,-38]],[[3215,2381],[-62,62]],[[3153,2443],[35,70]],[[3188,2513],[50,4]],[[1513,0],[83,37],[12,-37],[-95,0]],[[1936,1341],[4,-70]],[[1912,1204],[-3,-14]],[[1832,1202],[-43,13]],[[1789,1215],[-21,121]],[[1768,1336],[51,102]],[[1819,1438],[32,-3]],[[1851,1435],[32,-35]],[[1768,1336],[-72,8]],[[1696,1344],[-8,25]],[[1688,1369],[10,41]],[[1698,1410],[11,75]],[[1709,1485],[41,39]],[[1750,1524],[91,-58],[-22,-28]],[[1236,598],[-98,2]],[[1082,769],[35,-8]],[[1117,761],[62,6]],[[1838,135],[-39,-53]],[[1799,82],[-78,10],[60,50]],[[1781,142],[27,60]],[[1808,202],[32,-47]],[[929,1919],[45,-46],[-31,-43]],[[943,1830],[-94,28]],[[849,1858],[48,91],[32,-30]],[[3008,778],[-15,-126]],[[2993,652],[-99,17]],[[2894,669],[22,126],[33,13]],[[2728,1630],[52,43]],[[2780,1673],[-19,-182]],[[2761,1491],[-42,-7]],[[2719,1484],[-39,85]],[[2761,1491],[4,-11]],[[2765,1480],[-31,-13]],[[2734,1467],[-15,15]],[[2719,1482],[0,2]],[[3050,2361],[-90,135],[-72,66]],[[2888,2562],[174,31]],[[3062,2593],[43,-65]],[[3105,2528],[1,0]],[[3106,2528],[47,-85]],[[3207,2362],[-65,-24]],[[3142,2338],[-92,13]],[[2617,1562],[-39,-20]],[[2578,1542],[-40,52]],[[2538,1594],[9,30]],[[2547,1624],[41,17]],[[1944,990],[-69,4]],[[1909,1190],[115,-42]],[[1743,914],[12,62]],[[1755,976],[76,14]],[[3131,2134],[16,22],[133,-30]],[[3280,2126],[-42,-85]],[[3238,2041],[-111,65]],[[3127,2106],[1,8]],[[2704,659],[8,22]],[[2712,681],[59,-58]],[[2771,623],[-67,36]],[[2828,1118],[-58,10]],[[2770,1128],[6,21]],[[2776,1149],[70,70],[6,-55]],[[2852,1164],[-24,-46]],[[2686,1050],[-44,74]],[[2642,1124],[17,26]],[[2659,1150],[51,-10]],[[2710,1140],[22,-8]],[[2732,1132],[36,-8]],[[2768,1124],[-82,-74]],[[2546,1016],[-17,-29]],[[2529,987],[-55,-20]],[[2474,967],[-6,25]],[[2566,2403],[10,-93],[-80,-11]],[[2496,2299],[-11,7]],[[2485,2306],[-75,67],[38,93]],[[2588,1309],[36,22]],[[2624,1331],[-21,-43]],[[2603,1288],[-15,21]],[[149,2439],[-30,-79]],[[119,2360],[-1,1]],[[118,2361],[-118,65]],[[0,2426],[0,22]],[[3120,2212],[22,126]],[[3221,2313],[76,-137]],[[3297,2176],[-156,17]],[[51,132],[1,-3]],[[52,129],[-52,-64]],[[0,65],[0,139]],[[0,204],[1,-4]],[[1828,1806],[-4,-4]],[[1824,1802],[-141,-4]],[[1683,1798],[-12,47]],[[1671,1845],[81,46]],[[1752,1891],[76,-85]],[[1752,1891],[88,-23]],[[1840,1868],[-12,-62]],[[1683,1798],[-55,39]],[[1628,1837],[43,8]],[[2181,67],[2,-16]],[[2183,51],[-67,5]],[[2116,56],[65,11]],[[94,2114],[-52,60]],[[42,2174],[76,187]],[[119,2360],[81,-40]],[[200,2320],[-24,-160],[80,-12]],[[2900,1040],[-39,48]],[[2861,1088],[-33,30]],[[2852,1164],[51,7]],[[2903,1171],[6,-9]],[[3172,1065],[-53,43]],[[3119,1108],[9,127]],[[3128,1235],[38,-7]],[[3166,1228],[6,-163]],[[2187,1259],[-54,79]],[[2133,1338],[69,103],[86,-115],[-101,-67]],[[2058,905],[75,51]],[[2133,956],[49,-46]],[[2182,910],[0,-7]],[[2182,903],[-21,-92],[-70,-27]],[[2091,784],[-12,8]],[[2079,792],[-46,77]],[[1510,1837],[-47,-46]],[[1463,1791],[-135,-9],[-29,-38]],[[1299,1744],[9,45]],[[1308,1789],[46,23]],[[1354,1812],[77,32]],[[1431,1844],[79,-7]],[[1573,1910],[-3,-52]],[[1570,1858],[-60,-21]],[[1431,1844],[1,81]],[[1274,2644],[-91,94]],[[1183,2738],[446,0]],[[1629,2738],[-46,-36]],[[1918,578],[-33,81]],[[1985,781],[94,11]],[[2091,784],[3,-65],[81,0],[50,-45]],[[2225,674],[-50,-10]],[[2175,664],[-108,-40]],[[1027,296],[-74,30]],[[953,326],[9,58]],[[962,384],[97,20],[-9,-97]],[[1050,307],[-23,-11]],[[2496,2299],[26,-53]],[[2522,2246],[-24,-47]],[[2498,2199],[-58,-7],[-47,-75]],[[2393,2117],[0,6]],[[2393,2123],[-74,113]],[[2319,2236],[23,31]],[[2342,2267],[66,45],[77,-6]],[[2498,2199],[44,-82]],[[2542,2117],[-40,-48]],[[2502,2069],[-82,-10]],[[2420,2059],[-27,58]],[[2081,1696],[-59,44]],[[2022,1740],[47,54],[54,-28]],[[2123,1766],[-31,-79]],[[2092,1687],[-4,3]],[[2088,1690],[-7,6]],[[158,1896],[-11,-74],[139,-13]],[[286,1809],[-120,-82],[-13,-119]],[[153,1608],[-153,28]],[[0,1636],[0,227]],[[0,1863],[31,65],[-31,10]],[[0,1938],[0,44]],[[0,1982],[35,71]],[[2711,498],[50,49]],[[2761,547],[22,-96]],[[2783,451],[-60,23]],[[2704,659],[-48,-105],[-48,31]],[[2608,585],[-10,81]],[[2598,666],[59,25]],[[2657,691],[8,-2]],[[2665,689],[47,-8]],[[1602,1953],[0,26],[159,20],[15,33]],[[1776,2032],[88,-123]],[[1864,1909],[-24,-41]],[[1628,1837],[-57,18]],[[1571,1855],[-1,3]],[[254,1189],[41,-117]],[[2861,1088],[-34,-20]],[[2827,1068],[-58,56]],[[2769,1124],[1,4]],[[0,204],[0,237]],[[0,441],[193,-46]],[[3177,2643],[-79,-17]],[[3098,2626],[-19,55],[-97,57]],[[2982,2738],[196,0]],[[3178,2738],[-1,-95]],[[2736,1149],[18,56]],[[2754,1205],[19,-46]],[[2773,1159],[-37,-10]],[[41,910],[-3,-45]],[[38,865],[-38,-8]],[[0,857],[0,98]],[[1755,976],[7,50]],[[1762,1026],[29,14]],[[2358,868],[-67,46]],[[2291,914],[53,41]],[[2344,955],[14,-87]],[[1704,2152],[100,-13]],[[1804,2139],[-28,-107]],[[1571,1855],[37,-93]],[[1608,1762],[-28,-16],[6,-127]],[[1586,1619],[-72,-13]],[[1514,1606],[-46,4],[-5,181]],[[2419,848],[0,2]],[[2419,850],[27,91]],[[2446,941],[29,-11]],[[2446,941],[28,26]],[[2529,987],[6,-28]],[[629,1130],[6,36]],[[635,1166],[74,19],[1,64]],[[710,1249],[54,70]],[[764,1319],[60,-123]],[[824,1196],[20,-77]],[[824,1196],[125,-7]],[[949,1189],[39,-7]],[[958,1130],[-106,-55]],[[635,1166],[-39,10],[14,90]],[[610,1266],[100,-17]],[[486,1146],[-43,83]],[[443,1229],[52,58]],[[495,1287],[115,-21]],[[3065,1943],[33,-5]],[[3098,1938],[41,-41],[-23,-73]],[[3116,1824],[-62,23]],[[1956,1239],[76,37]],[[2032,1276],[45,11]],[[2077,1287],[35,-43]],[[2112,1244],[14,-43]],[[2126,1201],[4,-18]],[[2130,1183],[-106,-35]],[[2384,1131],[76,-79]],[[2522,2246],[169,32],[15,-79],[60,-21]],[[2766,2178],[-53,-69],[-68,-7],[-49,57],[-11,-82]],[[2585,2077],[-10,-10]],[[2575,2067],[-33,50]],[[2798,2137],[-32,41]],[[2751,2381],[194,-33]],[[3238,2041],[-29,-57]],[[3209,1984],[-78,5]],[[3131,1989],[-40,65],[36,52]],[[901,822],[21,58]],[[922,880],[70,34]],[[1130,803],[-13,-42]],[[747,1867],[-48,-128]],[[699,1739],[-87,22]],[[612,1761],[37,116],[94,34],[4,-44]],[[2088,1690],[-44,-121],[37,-62]],[[2081,1507],[3,-45]],[[2084,1462],[-19,-11]],[[2065,1451],[-98,30],[3,44]],[[1970,1525],[-34,61]],[[1936,1586],[4,12]],[[1940,1598],[59,75],[82,23]],[[2388,1162],[109,-11]],[[2497,1151],[12,-21]],[[2509,1130],[8,-74]],[[42,2174],[-42,8]],[[0,2182],[0,244]],[[461,322],[-1,-2]],[[460,320],[-16,-128]],[[444,192],[-110,-43],[-64,57]],[[270,206],[-59,-34],[-39,93]],[[979,2707],[-20,31]],[[959,2738],[224,0]],[[521,2454],[27,35]],[[548,2489],[93,63]],[[641,2552],[16,-47]],[[752,2240],[-93,75],[-165,64]],[[494,2379],[1,8]],[[2319,2236],[-141,-78],[-45,-68]],[[2133,2090],[0,110]],[[2133,2200],[-12,41],[127,107]],[[2248,2348],[94,-81]],[[1217,1391],[-67,12]],[[1150,1403],[-83,114]],[[1067,1517],[62,66],[-76,-2]],[[1053,1581],[0,1]],[[1053,1582],[95,20]],[[1148,1602],[42,-23]],[[1190,1579],[54,-24]],[[252,894],[-2,-26]],[[184,814],[-149,15]],[[35,829],[3,36]],[[1369,878],[2,43]],[[1522,1057],[21,12]],[[1543,1069],[52,-27]],[[1595,1042],[22,-155],[41,-41]],[[1653,842],[-91,-82]],[[1562,760],[-61,6]],[[1501,766],[-75,16]],[[349,1204],[22,-55]],[[371,1149],[-76,-77]],[[2456,1621],[44,-51]],[[2500,1570],[-27,-51]],[[2473,1519],[-50,36]],[[2423,1555],[-16,39]],[[2407,1594],[-8,81]],[[699,1739],[93,-32]],[[792,1707],[44,-13]],[[836,1694],[-14,-129]],[[822,1565],[0,-20]],[[822,1545],[-34,-67]],[[788,1478],[-240,41],[-7,-75]],[[541,1444],[-83,69]],[[458,1513],[139,60],[24,166],[-46,28]],[[575,1767],[14,7]],[[589,1774],[23,-13]],[[1025,1240],[-81,37]],[[944,1277],[-63,41]],[[881,1318],[-7,100]],[[874,1418],[32,0]],[[906,1418],[237,-61]],[[1143,1357],[-21,-177]],[[881,1318],[-114,12]],[[767,1330],[40,92]],[[807,1422],[38,28]],[[845,1450],[29,-32]],[[2130,1183],[63,-16]],[[2193,1167],[-3,-6]],[[2190,1161],[-39,-154]],[[2151,1007],[-43,33]],[[681,521],[145,-47],[54,11]],[[880,485],[19,-41]],[[899,444],[-53,-30]],[[846,414],[-57,-37],[-75,106]],[[714,483],[-33,38]],[[1148,1602],[67,39]],[[1215,1641],[-25,-62]],[[2575,1061],[-23,57]],[[2552,1118],[67,-20]],[[2619,1098],[-17,-56]],[[322,813],[-50,-25]],[[276,875],[86,-50]],[[2084,1462],[28,3]],[[2112,1465],[21,-20]],[[2133,1445],[-68,6]],[[2783,451],[-9,-32]],[[2774,419],[-48,-34]],[[180,789],[-22,-125]],[[158,664],[-158,22]],[[0,686],[0,25]],[[0,711],[19,30]],[[19,741],[37,-23],[-21,111]],[[1067,1517],[-14,64]],[[460,320],[135,3]],[[595,323],[112,8],[7,152]],[[846,414],[19,-91]],[[865,323],[169,-151]],[[1034,172],[29,-172]],[[1063,0],[-611,0]],[[452,0],[-30,88],[22,104]],[[1696,1344],[60,-117]],[[1756,1227],[-44,-51],[-111,16]],[[1601,1192],[53,42],[-39,79]],[[1615,1313],[73,56]],[[1601,1192],[-60,25]],[[1541,1217],[-33,19]],[[1508,1236],[53,77]],[[1561,1313],[54,0]],[[0,515],[10,-26],[-10,-10]],[[0,479],[0,36]],[[1823,2599],[-71,10]],[[1752,2609],[-76,82]],[[1676,2691],[7,47]],[[1683,2738],[275,0]],[[1958,2738],[-3,-17]],[[1955,2721],[-34,-22]],[[1921,2699],[-80,-18],[-18,-82]],[[0,1254],[0,382]],[[153,1608],[97,-51]],[[250,1557],[-84,-155]],[[0,612],[0,74]],[[158,664],[15,-4]],[[173,660],[-107,-70]],[[2092,1687],[73,-43],[-22,-83],[167,-85]],[[2310,1476],[-6,-40]],[[2304,1436],[-65,30],[-153,27]],[[2086,1493],[-5,14]],[[335,1810],[-49,-1]],[[2086,1493],[67,-12]],[[2153,1481],[-41,-16]],[[2153,1481],[-20,-36]],[[1884,256],[-76,-30]],[[1808,226],[1,51]],[[1809,277],[-94,137]],[[1761,444],[77,14]],[[1781,142],[-45,17]],[[1736,159],[-2,53]],[[1734,212],[75,65]],[[1808,226],[0,-24]],[[1310,107],[42,-47],[117,-11],[65,55],[31,-55],[-82,-49],[-214,0]],[[1269,0],[16,13]],[[52,129],[130,-16]],[[182,113],[-29,-40],[79,-73]],[[232,0],[-232,0],[0,65]],[[2769,2652],[14,86]],[[2783,2738],[199,0]],[[3098,2626],[-36,-33]],[[2888,2562],[-58,43]],[[1787,0],[-3,20],[27,0],[-24,-20]],[[762,2728],[25,10]],[[787,2738],[172,0]],[[829,2559],[-73,-75]],[[641,2552],[-55,148]],[[586,2700],[-49,-8],[-44,-100]],[[493,2592],[-50,4],[15,142]],[[458,2738],[115,0]],[[573,2738],[1,-1]],[[2749,872],[-9,-95],[76,-38]],[[2816,739],[-151,-50]],[[2657,691],[-9,110]],[[2648,801],[9,75]],[[2657,876],[0,1]],[[2657,877],[61,24]],[[2393,2123],[-53,3],[-89,-79],[-72,1],[-38,-68]],[[2141,1980],[-41,79]],[[2100,2059],[33,31]],[[2833,2021],[-44,6]],[[2789,2027],[-99,-43],[-105,93]],[[768,2206],[-91,-2]],[[677,2204],[-110,51]],[[484,2303],[10,76]],[[378,2268],[-36,127]],[[342,2395],[68,10]],[[2816,739],[14,-125]],[[2830,614],[-56,-8]],[[2774,606],[-3,17]],[[1714,586],[40,41]],[[2668,1421],[-14,-49]],[[2654,1372],[-15,55]],[[2639,1427],[29,-6]],[[2076,402],[74,-86]],[[2150,316],[-23,-117]],[[2127,199],[-36,-16]],[[2045,155],[-1,-7]],[[2044,148],[-60,-36]],[[2482,2656],[-6,82]],[[2476,2738],[139,0]],[[2615,2738],[11,-17]],[[2734,1467],[-31,-23]],[[2703,1444],[16,38]],[[2267,499],[53,-41]],[[2320,458],[-31,-21]],[[1852,92],[-53,-10]],[[2936,68],[-22,-55],[-87,11],[0,62],[-66,15],[-4,63]],[[2757,164],[55,-21]],[[2812,143],[124,-75]],[[1728,681],[-79,-31]],[[1649,650],[-80,103]],[[1569,753],[-7,7]],[[677,2204],[0,-72],[-170,-5]],[[2407,1594],[-38,-1]],[[2369,1593],[-47,40]],[[2322,1633],[-117,-6]],[[2205,1627],[-8,-23]],[[2197,1604],[-7,-1]],[[2190,1603],[16,83],[82,42]],[[2288,1728],[86,-16]],[[2288,1728],[-142,70]],[[2146,1798],[-4,0]],[[2142,1798],[77,23]],[[2190,1603],[-5,-5]],[[2185,1598],[-53,153],[14,47]],[[922,880],[-66,121]],[[872,1015],[61,-25]],[[728,864],[-48,4]],[[2631,1427],[-9,-23]],[[2622,1404],[-23,0]],[[2599,1404],[-5,32]],[[2594,1436],[37,-9]],[[2277,1021],[-5,1]],[[2272,1022],[-90,-17]],[[2182,1005],[-31,1]],[[2151,1006],[0,1]],[[2190,1161],[125,-67]],[[19,741],[-19,38]],[[0,779],[0,78]],[[2133,956],[18,50]],[[2182,1005],[0,-95]],[[1698,1410],[-2,56]],[[1696,1466],[6,30]],[[1702,1496],[7,-11]],[[1418,1440],[20,-12]],[[1438,1428],[23,-24]],[[1461,1404],[73,0],[27,-91]],[[1508,1236],[-64,-3],[-12,-79],[42,-106]],[[1382,1025],[3,25]],[[2193,1167],[76,88]],[[2269,1255],[79,-88]],[[2238,1898],[-60,-21]],[[2178,1877],[-37,103]],[[2420,2059],[-63,-73],[-84,-34],[35,-53]],[[2197,1604],[-12,-6]],[[2864,233],[113,-19]],[[2977,214],[-50,-22],[9,-124]],[[2812,143],[9,68]],[[2821,211],[0,9]],[[421,784],[34,55]],[[496,876],[25,-101],[95,-16],[-21,-48]],[[595,711],[-92,-155]],[[401,566],[11,97],[-57,9]],[[2369,1593],[0,-27]],[[2369,1566],[-46,-67],[-17,75]],[[2306,1574],[16,59]],[[1459,183],[38,-84],[-135,-17],[4,113],[66,71]],[[1432,266],[36,-4]],[[1468,262],[-9,-79]],[[331,492],[-52,9],[22,138],[49,34]],[[452,0],[-220,0]],[[182,113],[88,93]],[[2178,1877],[-103,0],[-127,94]],[[1948,1971],[-90,82],[80,127]],[[1938,2180],[22,-12]],[[1960,2168],[26,-71],[114,-38]],[[2891,333],[-4,51]],[[2887,384],[91,37]],[[2978,421],[54,-49],[0,-85],[-101,32],[46,-105]],[[3098,1938],[13,27]],[[3111,1965],[55,2]],[[3166,1967],[38,-16]],[[3204,1951],[-8,-75],[143,-120],[-56,-149],[-104,46],[5,151],[-68,20]],[[3040,2041],[71,-76]],[[2990,1931],[-31,43]],[[272,2262],[-55,44]],[[217,2306],[52,66],[73,23]],[[2761,547],[13,59]],[[2830,614],[75,-13]],[[2905,601],[95,-19]],[[3000,582],[-22,-161]],[[2887,384],[-53,61],[-60,-26]],[[2182,903],[86,22]],[[2268,925],[23,-11]],[[2358,868],[15,-36]],[[2373,832],[-57,-47]],[[2316,785],[-20,-16]],[[2296,769],[-70,-98]],[[2226,671],[-1,3]],[[0,2586],[0,55]],[[0,2641],[14,-52]],[[1804,2139],[59,41]],[[1863,2180],[75,0]],[[1948,1971],[-54,-89]],[[1894,1882],[-30,27]],[[2527,718],[71,-52]],[[2608,585],[-77,-13]],[[2506,414],[15,-165],[-31,1],[-33,177],[-35,7],[-25,-123],[-21,99],[-56,48]],[[2265,602],[100,83]],[[2365,685],[48,53]],[[2821,211],[-78,7]],[[2743,218],[-37,66]],[[2706,284],[-2,5]],[[1008,1607],[-36,43]],[[972,1650],[76,7]],[[1048,1657],[-40,-50]],[[2599,1404],[-48,40]],[[2551,1444],[6,12]],[[2557,1456],[37,-20]],[[1788,1696],[-17,-49]],[[1771,1647],[-74,10]],[[1697,1657],[-6,33]],[[1691,1690],[97,6]],[[1608,1762],[45,-85],[38,13]],[[1697,1657],[-111,-38]],[[1269,0],[-206,0]],[[1034,172],[-1,16]],[[1033,188],[22,-4]],[[1055,184],[33,-27],[119,7]],[[1207,164],[3,-8]],[[1150,1403],[-7,-46]],[[906,1418],[21,99],[-105,28]],[[822,1565],[131,52],[8,39]],[[961,1656],[11,-6]],[[1008,1607],[45,-25]],[[845,1450],[-57,28]],[[2662,1911],[20,-60]],[[2622,1847],[-9,27]],[[2613,1874],[-37,40]],[[0,711],[0,68]],[[256,736],[32,-29]],[[2574,1312],[14,-3]],[[2603,1288],[-11,-41]],[[2592,1247],[-17,3]],[[1081,626],[20,-103]],[[1101,523],[-135,-18],[-25,-79]],[[941,426],[-42,18]],[[880,485],[-32,30],[17,115]],[[2654,1372],[-32,32]],[[2631,1427],[8,0]],[[0,1863],[0,75]],[[2223,304],[-34,-114]],[[2189,190],[-49,6]],[[2140,196],[-13,3]],[[2150,316],[2,0]],[[2657,877],[11,58]],[[2668,935],[8,49]],[[2676,984],[10,55]],[[2686,1039],[78,-30]],[[595,711],[31,-4]],[[681,521],[-44,-25],[-42,-173]],[[1722,244],[-54,-24],[-36,52],[-68,-57]],[[1564,215],[-40,-7]],[[1524,208],[7,80]],[[1531,288],[103,67]],[[1634,355],[88,-111]],[[1851,1435],[22,43]],[[2780,1673],[59,0],[-10,79],[103,-68],[1,-100],[104,26],[-37,-131],[-127,-81],[-77,24],[-31,58]],[[1501,766],[-61,-18]],[[2508,1711],[85,-9]],[[2593,1702],[36,-37]],[[2547,1624],[-42,41]],[[3188,2513],[-82,15]],[[3105,2528],[51,77],[83,-59],[45,149],[53,15],[-53,-136],[-2,-64]],[[1572,438],[1,110]],[[1573,548],[57,-12]],[[2703,1444],[-38,7]],[[2665,1451],[-5,103]],[[1438,1428],[53,112],[36,-12]],[[1527,1528],[24,-7],[-90,-117]],[[2419,850],[-46,-18]],[[2344,955],[4,6]],[[109,2588],[76,60]],[[185,2648],[64,-139],[-100,-70]],[[1823,2599],[21,-129],[-74,-34]],[[1770,2436],[-33,5],[15,168]],[[2947,1896],[-86,57],[7,41]],[[3049,1050],[70,58]],[[3172,1065],[-22,-74]],[[3297,2176],[-17,-50]],[[1742,2256],[83,-6]],[[1825,2250],[38,-70]],[[747,2738],[40,0]],[[3131,1989],[35,-22]],[[3178,2738],[155,0]],[[3333,2738],[24,-29]],[[3357,2709],[-23,8],[-67,-14],[-9,-67],[-81,7]],[[1297,1935],[-98,-76],[69,-72]],[[1268,1787],[-123,-42],[-58,44]],[[1087,1789],[-20,47]],[[1067,1836],[25,51]],[[1092,1887],[99,130],[58,-33]],[[1171,2199],[137,-40]],[[1092,1887],[72,103],[-32,137]],[[2142,1798],[-19,-32]],[[2022,1740],[7,22],[-135,120]],[[1789,1215],[-33,12]],[[2665,1451],[3,-30]],[[2557,1456],[30,67]],[[2587,1523],[-9,19]],[[2256,2738],[-33,-144]],[[2223,2594],[-43,-50]],[[2180,2544],[-40,45]],[[2140,2589],[6,70]],[[2146,2659],[-19,79]],[[2127,2738],[129,0]],[[1958,2738],[169,0]],[[2146,2659],[-153,32],[-38,30]],[[2613,1874],[-38,-59]],[[2575,1815],[-62,12]],[[2593,1702],[26,74]],[[2680,1776],[109,-16],[-17,-60],[-73,-35]],[[1067,1836],[-112,-14]],[[955,1822],[-12,8]],[[929,1919],[16,45]],[[945,1964],[43,-33],[84,62],[29,96]],[[2423,1555],[-54,11]],[[1341,1946],[13,-134]],[[1308,1789],[-40,-2]],[[1736,159],[-29,-91],[-88,-16],[5,65],[-134,33],[74,65]],[[1722,244],[12,-32]],[[949,1189],[-5,88]],[[849,1858],[-13,-19]],[[836,1839],[-5,29]],[[831,1868],[21,131]],[[852,1999],[93,-35]],[[1654,0],[16,31],[81,-31],[-97,0]],[[2686,1039],[0,11]],[[2768,1124],[1,0]],[[2827,1068],[-27,-61]],[[1375,603],[15,-80]],[[1390,523],[10,-42]],[[1400,481],[-3,-147]],[[1397,334],[-45,-30],[-89,25]],[[1263,329],[12,258]],[[1397,334],[23,-53],[-45,-49],[-97,-25],[-20,120]],[[1258,327],[0,3]],[[1258,330],[5,-1]],[[962,384],[-21,42]],[[1101,523],[72,-92],[-9,-88]],[[1164,343],[-114,-36]],[[467,2467],[-24,96]],[[443,2563],[44,-7]],[[487,2556],[61,-67]],[[1256,1661],[-41,-20]],[[1048,1657],[-27,68],[66,64]],[[1299,1744],[-40,-49]],[[1632,360],[2,-5]],[[1531,288],[-63,-26]],[[1432,266],[-26,153]],[[1406,419],[111,-28],[52,46]],[[1524,208],[-65,-25]],[[481,1777],[94,-10]],[[458,1513],[-28,81],[-138,-69],[-42,32]],[[747,1867],[84,1]],[[836,1839],[-44,-132]],[[1506,2358],[-16,84]],[[1518,2563],[90,-48]],[[1608,2515],[11,-60],[138,-73]],[[1757,2382],[14,-62]],[[1771,2320],[54,-70]],[[2272,1022],[-4,-97]],[[2757,164],[-18,50]],[[2739,214],[4,4]],[[1164,343],[44,-18]],[[1208,325],[17,-93]],[[1225,232],[-18,-68]],[[1055,184],[-4,75]],[[1051,259],[-24,37]],[[1051,259],[-18,-71]],[[865,323],[88,3]],[[2903,1171],[41,29]],[[2944,1200],[-8,-14]],[[2739,214],[-115,-54],[13,96],[69,28]],[[1295,1021],[87,4]],[[1376,986],[-27,-62],[-64,11]],[[2710,1140],[-1,55]],[[2709,1195],[51,103],[-6,-93]],[[2736,1149],[-4,-17]],[[346,1310],[139,-22]],[[485,1288],[10,-1]],[[443,1229],[-72,-80]],[[0,441],[0,38]],[[504,1893],[51,-39]],[[555,1854],[34,-80]],[[1569,753],[-35,-47],[30,-77]],[[1564,629],[-20,-54]],[[1544,575],[-127,-16],[-27,-36]],[[1936,1586],[-13,-35]],[[1923,1551],[-89,-7],[-37,74]],[[1797,1618],[37,44],[106,-64]],[[2133,2200],[-50,-19],[-114,89]],[[1969,2270],[135,155],[68,33]],[[2172,2458],[76,-110]],[[2497,1151],[-39,52],[67,51],[16,-53]],[[2541,1201],[-3,-55]],[[2538,1146],[-29,-16]],[[217,2306],[-17,14]],[[185,2648],[131,-28]],[[316,2620],[127,-57]],[[2927,949],[12,-73]],[[2939,876],[-83,11]],[[3209,1984],[-5,-33]],[[2140,196],[2,-67]],[[2142,129],[-61,18]],[[2189,190],[-13,-61]],[[2176,129],[-34,0]],[[2939,876],[10,-24]],[[2894,669],[11,-68]],[[2567,1013],[109,-29]],[[2668,935],[-121,22]],[[1210,1039],[-3,59]],[[1258,330],[-50,-5]],[[1258,327],[-33,-95]],[[1702,1496],[28,120],[49,-13],[-29,-79]],[[2306,1574],[-55,-24],[-46,77]],[[1406,419],[-6,62]],[[1544,575],[29,-27]],[[2112,1244],[37,5]],[[2149,1249],[-23,-48]],[[1541,1217],[32,-50],[-30,-98]],[[0,1982],[0,200]],[[2944,1200],[60,-34],[53,80]],[[3057,1246],[71,-11]],[[2571,821],[77,-20]],[[1396,1664],[63,-60]],[[1459,1604],[-35,-48],[-110,-51]],[[1564,629],[85,21]],[[2502,2069],[27,-79]],[[2575,2067],[30,-48]],[[573,2738],[1,0]],[[2269,1255],[61,48]],[[2420,1244],[22,-44],[-82,-25]],[[2773,1159],[3,-10]],[[2122,1341],[11,-3]],[[2187,1259],[-38,-10]],[[2077,1287],[13,38]],[[1514,1606],[-47,-2]],[[1467,1604],[-8,0]],[[1797,1618],[-26,29]],[[1788,1696],[57,63],[-21,43]],[[2183,51],[-90,-51]],[[2093,0],[23,56]],[[2176,129],[5,-62]],[[2093,0],[-100,0],[51,148]],[[0,2641],[0,97],[158,0]],[[158,2738],[7,-15],[25,15]],[[190,2738],[138,0]],[[328,2738],[-12,-118]],[[2921,1823],[-99,-37],[16,55],[-49,186]],[[1195,944],[-41,-19]],[[794,2120],[58,-121]],[[852,1999],[-111,32],[-60,-87],[-126,-90]],[[1467,1604],[0,-4]],[[1467,1600],[60,-72]],[[485,1288],[56,156]],[[788,1478],[19,-56]],[[767,1330],[-3,-11]],[[2993,652],[7,-70]],[[1771,2320],[88,31]],[[1859,2351],[97,-95]],[[1956,2256],[4,-88]],[[836,1694],[98,-20]],[[934,1674],[27,-18]],[[2172,2458],[8,86]],[[2223,2594],[69,-19],[69,163]],[[2361,2738],[115,0]],[[2256,2738],[105,0]],[[371,1149],[95,-74]],[[2538,1594],[-38,-24]],[[2365,685],[-44,45]],[[2321,730],[-5,55]],[[487,2556],[6,36]],[[1762,1026],[-28,-46],[-139,62]],[[2619,1098],[23,26]],[[2321,730],[-25,39]],[[2592,1247],[33,22]],[[2625,1269],[32,32],[42,-78]],[[2699,1223],[-40,-73]],[[2552,1118],[-14,28]],[[2541,1201],[21,23]],[[1467,1600],[212,22]],[[1679,1622],[-64,-78],[38,-31]],[[1653,1513],[43,-47]],[[158,2738],[32,0]],[[3107,932],[-39,-27]],[[2260,609],[-34,62]],[[1970,1525],[-47,26]],[[2615,2738],[168,0]],[[328,2738],[130,0]],[[2624,1331],[1,-62]],[[1770,2436],[-13,-54]],[[1608,2515],[54,36],[14,140]],[[1969,2270],[-13,-14]],[[1859,2351],[58,53]],[[1917,2404],[116,75],[5,72]],[[2038,2551],[102,38]],[[2175,664],[4,-31]],[[3057,1246],[-34,107],[122,51]],[[3145,1404],[44,-10]],[[3189,1394],[-23,-166]],[[2038,2551],[-49,12],[-72,-159]],[[1823,2599],[69,24],[29,76]],[[2032,1276],[-5,26]],[[3333,2738],[18,0],[6,-29]],[[2657,876],[-83,-13]],[[3145,1404],[-33,43],[38,66],[39,-119]],[[2551,1444],[-49,-52],[8,84]],[[2510,1476],[77,47]],[[1679,1622],[-26,-109]],[[955,1822],[-43,-69],[22,-79]],[[1629,2738],[54,0]],[[2575,1815],[63,-11]],[[2510,1476],[-37,43]],[[2699,1223],[10,-28]],[[2310,1476],[57,-36],[-63,-4]],[[6434,9648],[-33,-22]],[[6401,9626],[-44,-46]],[[6357,9580],[23,81],[-83,-8]],[[6297,9653],[-8,58]],[[6289,9711],[62,25]],[[6351,9736],[60,52],[50,-49]],[[6461,9739],[-4,-26]],[[6457,9713],[-23,-65]],[[6357,9580],[-5,-31]],[[6352,9549],[-118,-20]],[[6234,9529],[-56,24]],[[6178,9553],[22,25]],[[6200,9578],[58,90],[39,-15]],[[6742,9685],[-76,-46]],[[6666,9639],[0,35]],[[6666,9674],[14,19]],[[6680,9693],[40,36]],[[6720,9729],[22,-44]],[[6097,9128],[24,63]],[[6121,9191],[13,-63]],[[6134,9128],[-37,0]],[[6175,10134],[-12,-67]],[[6163,10067],[-85,5]],[[6078,10072],[31,51]],[[6109,10123],[66,11]],[[6351,9736],[29,98],[67,10],[-59,57]],[[6388,9901],[5,22]],[[6393,9923],[46,12]],[[6439,9935],[40,-80]],[[6479,9855],[58,-71]],[[6537,9784],[-76,-45]],[[6175,10134],[79,59]],[[6254,10193],[5,1]],[[6259,10194],[75,-91]],[[6334,10103],[1,0]],[[6335,10103],[-126,-35]],[[6209,10068],[-46,-1]],[[6003,9557],[-11,-14]],[[5992,9543],[-83,68],[-34,-78]],[[5875,9533],[-39,104]],[[5836,9637],[0,57]],[[5836,9694],[24,58],[66,17]],[[5926,9769],[87,-92]],[[6013,9677],[-10,-120]],[[5926,9769],[27,33]],[[5953,9802],[47,15]],[[6000,9817],[-1,-24]],[[5999,9793],[-1,-52],[101,-51]],[[6099,9690],[-86,-13]],[[5992,9543],[-31,-48]],[[5961,9495],[-88,12]],[[5873,9507],[0,3]],[[5873,9510],[2,23]],[[6638,9965],[-48,46]],[[6590,10011],[120,22]],[[6710,10033],[13,-110],[-53,-83],[-32,125]],[[6234,9529],[5,-8]],[[6239,9521],[-2,-62],[48,-43]],[[6285,9416],[-27,-86],[-94,-68]],[[6164,9262],[-26,138],[-82,-80]],[[6056,9320],[-24,73]],[[6032,9393],[42,140]],[[6074,9533],[4,24]],[[6078,9557],[100,-4]],[[6680,9693],[-32,21]],[[6648,9714],[3,4]],[[6651,9718],[39,59]],[[6690,9777],[48,0]],[[6738,9777],[-18,-48]],[[6315,9128],[8,72],[-61,3]],[[6262,9203],[31,69],[109,121],[23,-23]],[[6425,9370],[-28,-43],[32,-92],[-6,-107],[-108,0]],[[5836,9269],[72,7]],[[5908,9276],[76,-68]],[[5984,9208],[-46,3],[-51,-62],[32,-21]],[[5919,9128],[-83,0],[0,141]],[[5953,9802],[-117,49]],[[5836,9851],[0,89]],[[5836,9940],[267,-50]],[[6103,9890],[3,-23]],[[6106,9867],[-75,-2],[-31,-48]],[[7261,10427],[-257,-188]],[[7004,10239],[-118,23]],[[6886,10262],[-25,80]],[[6861,10342],[44,55],[180,100]],[[7085,10497],[21,0]],[[7106,10497],[-7,-41],[162,-29]],[[5887,10155],[-51,9]],[[5836,10164],[0,56]],[[5836,10220],[51,-65]],[[5836,10386],[80,-63]],[[5916,10323],[-80,-13]],[[5836,10310],[0,76]],[[6861,10342],[18,97],[80,58],[126,0]],[[7106,10497],[189,0],[0,-45],[-34,-25]],[[6099,9690],[0,-6]],[[6099,9684],[-11,-87]],[[6088,9597],[-10,-40]],[[6074,9533],[-71,24]],[[6121,9191],[-50,100]],[[6071,9291],[-15,29]],[[6164,9262],[98,-59]],[[6262,9203],[14,-75]],[[6276,9128],[-142,0]],[[6393,9923],[11,65],[49,4]],[[6453,9992],[22,-27]],[[6475,9965],[-36,-30]],[[5836,9694],[0,157]],[[6479,9855],[41,57]],[[6520,9912],[62,-63]],[[6582,9849],[-5,-26]],[[6577,9823],[-7,-45]],[[6570,9778],[-33,6]],[[6577,9823],[37,-72]],[[6614,9751],[-44,27]],[[6475,9965],[2,0]],[[6477,9965],[43,-53]],[[6614,9751],[37,-33]],[[6648,9714],[-30,9]],[[6618,9723],[-62,-27],[-99,17]],[[5836,10386],[0,111],[348,0],[42,-37]],[[6226,10460],[-56,-26]],[[6170,10434],[-32,-98],[-101,-68]],[[6037,10268],[-72,-15],[-49,70]],[[6352,9549],[54,-51]],[[6406,9498],[-77,19]],[[6329,9517],[-90,4]],[[6032,9393],[-78,67]],[[5954,9460],[7,35]],[[6477,9965],[18,-2]],[[6495,9963],[66,-31]],[[6561,9932],[33,-20]],[[6594,9912],[-12,-63]],[[6163,10067],[25,-100]],[[6188,9967],[-46,6]],[[6142,9973],[-64,99]],[[6006,9128],[4,27]],[[6010,9155],[34,-27]],[[6044,9128],[-38,0]],[[6329,9517],[5,-67],[-49,-34]],[[6446,10226],[-6,1]],[[6440,10227],[-150,133],[-19,95],[-46,42],[242,0],[111,-42],[166,-19],[39,-89],[-28,-18],[53,-127],[1,-98],[-71,-73],[7,105],[-92,34],[-129,84],[-78,-28]],[[6200,9578],[-112,19]],[[6099,9684],[34,-9]],[[6133,9675],[93,43],[63,-7]],[[5873,9507],[-37,-77]],[[5836,9430],[0,85]],[[5836,9515],[37,-5]],[[6188,9967],[124,-17]],[[6312,9950],[76,-49]],[[6388,9901],[-172,-51]],[[6216,9850],[-83,63],[-29,-22]],[[6104,9891],[38,82]],[[5836,9515],[0,122]],[[5836,10220],[0,90]],[[6037,10268],[-27,-145]],[[6010,10123],[-123,32]],[[6561,9932],[77,33]],[[6638,9965],[-4,-61]],[[6634,9904],[-40,8]],[[6453,9992],[-45,52]],[[6408,10044],[32,117]],[[6440,10161],[113,-66]],[[6553,10095],[-10,-108]],[[6543,9987],[-48,-24]],[[6553,10095],[37,-84]],[[6590,10011],[-47,-24]],[[6440,10161],[-22,70]],[[6418,10231],[22,-4]],[[6446,10226],[86,-9],[138,-98],[40,-86]],[[6334,10103],[48,41],[-82,113]],[[6300,10257],[24,28]],[[6324,10285],[94,-54]],[[6408,10044],[-49,47]],[[6359,10091],[-24,12]],[[6401,9626],[17,-45],[79,38],[-63,29]],[[6618,9723],[48,-49]],[[6666,9639],[-188,-173]],[[6478,9466],[-72,32]],[[6071,9291],[-53,-61]],[[6018,9230],[-34,-22]],[[5908,9276],[46,184]],[[6133,9675],[-8,56],[84,66],[7,53]],[[5999,9793],[110,-46],[-3,120]],[[6103,9890],[1,1]],[[6690,9777],[-36,32]],[[6654,9809],[9,10]],[[6663,9819],[158,-12]],[[6821,9807],[15,-37]],[[6836,9770],[-66,-74]],[[6770,9696],[-32,81]],[[6821,9807],[62,37],[-47,-74]],[[6582,9849],[72,-40]],[[6209,10068],[104,-116]],[[6313,9952],[-1,-2]],[[6315,9128],[-39,0]],[[6254,10193],[-84,241]],[[6226,10460],[42,-133],[56,-42]],[[6300,10257],[-41,-63]],[[6109,10123],[-99,0]],[[7004,10239],[-122,-138],[-39,-134],[19,-86],[-78,-5],[-17,61],[97,186],[22,139]],[[6770,9696],[-28,-11]],[[6018,9230],[-8,-75]],[[6006,9128],[-87,0]],[[6700,10497],[-1,-21],[-88,16],[89,5]],[[5836,9940],[0,224]],[[6313,9952],[46,139]],[[5836,9269],[0,161]],[[6478,9466],[-53,-96]],[[6634,9904],[29,-85]],[[6097,9128],[-53,0]]],"transform":{"scale":[0.00013708019191226866,0.00010955511098409056],"translate":[150.85,-34]},"objects":{"sydney":{"type":"GeometryCollection","geometries":[{"arcs":[[0,1,2,3,4,5,6,7]],"type":"Polygon","properties":{"SAL_NAME21":"Abbotsbury"}},{"arcs":[[8,9,10,11]],"type":"Polygon","properties":{"SAL_NAME21":"Abbotsford (NSW)"}},{"arcs":[[12,13,14,15]],"type":"Polygon","properties":{"SAL_NAME21":"Acacia Gardens"}},{"arcs":[[16,17,18,19,20,21,22,23,24]],"type":"Polygon","properties":{"SAL_NAME21":"Alexandria"}},{"arcs":[[25,26,27]],"type":"Polygon","properties":{"SAL_NAME21":"Alfords Point"}},{"arcs":[[28,29,30,31,32,33,34,35]],"type":"Polygon","properties":{"SAL_NAME21":"Allambie Heights"}},{"arcs":[[36,37,38]],"type":"Polygon","properties":{"SAL_NAME21":"Allawah"}},{"arcs":[[39,40,41,42,43,44,45,46]],"type":"Polygon","properties":{"SAL_NAME21":"Annandale (NSW)"}},{"arcs":[[47,48,49,50,51,52,53,54]],"type":"Polygon","properties":{"SAL_NAME21":"Arncliffe"}},{"arcs":[[55,56,57,58,59]],"type":"Polygon","properties":{"SAL_NAME21":"Arndell Park"}},{"arcs":[[60,61,62,63,64,65,66]],"type":"Polygon","properties":{"SAL_NAME21":"Artarmon"}},{"arcs":[[67,68,69,70,71]],"type":"Polygon","properties":{"SAL_NAME21":"Ashbury"}},{"arcs":[[72,73,74,75,76]],"type":"Polygon","properties":{"SAL_NAME21":"Ashcroft"}},{"arcs":[[-72,77,78,79,80,81,82]],"type":"Polygon","properties":{"SAL_NAME21":"Ashfield (NSW)"}},{"arcs":[[83,84,85,86,87,88,89,90,91,92]],"type":"Polygon","properties":{"SAL_NAME21":"Auburn (NSW)"}},{"arcs":[[93,94,95,96,97,98,99]],"type":"Polygon","properties":{"SAL_NAME21":"Balgowlah"}},{"arcs":[[-96,100,101]],"type":"Polygon","properties":{"SAL_NAME21":"Balgowlah Heights"}},{"arcs":[[102,103,104,105,106,107]],"type":"Polygon","properties":{"SAL_NAME21":"Balmain"}},{"arcs":[[-104,108]],"type":"Polygon","properties":{"SAL_NAME21":"Balmain East"}},{"arcs":[[-52,109,110]],"type":"Polygon","properties":{"SAL_NAME21":"Banksia"}},{"arcs":[[111,112,113,114,115,116]],"type":"Polygon","properties":{"SAL_NAME21":"Banksmeadow"}},{"arcs":[[117,118,119,120,121,122,123]],"type":"Polygon","properties":{"SAL_NAME21":"Bankstown"}},{"arcs":[[124,125,126,127,128]],"type":"Polygon","properties":{"SAL_NAME21":"Bankstown Aerodrome"}},{"arcs":[[129,130,131]],"type":"Polygon","properties":{"SAL_NAME21":"Barangaroo"}},{"arcs":[[132,133,134,135]],"type":"Polygon","properties":{"SAL_NAME21":"Bardia"}},{"arcs":[[136,137,138,139,140]],"type":"Polygon","properties":{"SAL_NAME21":"Bardwell Park"}},{"arcs":[[-54,141,142,-141,143]],"type":"Polygon","properties":{"SAL_NAME21":"Bardwell Valley"}},{"arcs":[[144,145,146,147,148,149]],"type":"Polygon","properties":{"SAL_NAME21":"Bass Hill"}},{"arcs":[[150,151,152,153,154,155,156,157]],"type":"Polygon","properties":{"SAL_NAME21":"Baulkham Hills"}},{"arcs":[[-33,158,159,160,161,162]],"type":"Polygon","properties":{"SAL_NAME21":"Beacon Hill"}},{"arcs":[[-20,163,164]],"type":"Polygon","properties":{"SAL_NAME21":"Beaconsfield (NSW)"}},{"arcs":[[165,166,167,168,169]],"type":"Polygon","properties":{"SAL_NAME21":"Beaumont Hills"}},{"arcs":[[170,171,172,173,174]],"type":"Polygon","properties":{"SAL_NAME21":"Beecroft"}},{"arcs":[[175,176,177,178,179]],"type":"Polygon","properties":{"SAL_NAME21":"Belfield"}},{"arcs":[[-152,180,181,182,183]],"type":"Polygon","properties":{"SAL_NAME21":"Bella Vista"}},{"arcs":[[184,185,186,187,188,189,190]],"type":"Polygon","properties":{"SAL_NAME21":"Bellevue Hill"}},{"arcs":[[-178,191,192,193,194,195,196]],"type":"Polygon","properties":{"SAL_NAME21":"Belmore"}},{"arcs":[[197,198,199,200,201,202,203]],"type":"Polygon","properties":{"SAL_NAME21":"Belrose"}},{"arcs":[[-93,204,205]],"type":"Polygon","properties":{"SAL_NAME21":"Berala"}},{"arcs":[[206,207,208,209,210]],"type":"Polygon","properties":{"SAL_NAME21":"Beverley Park"}},{"arcs":[[211,212,213,214,215,216,217]],"type":"Polygon","properties":{"SAL_NAME21":"Beverly Hills"}},{"arcs":[[-137,-143,218,219,220,221,222,223]],"type":"Polygon","properties":{"SAL_NAME21":"Bexley"}},{"arcs":[[-138,-224,224,225]],"type":"Polygon","properties":{"SAL_NAME21":"Bexley North"}},{"arcs":[[-108,226]],"type":"Polygon","properties":{"SAL_NAME21":"Birchgrove"}},{"arcs":[[227,228,229,230]],"type":"Polygon","properties":{"SAL_NAME21":"Birrong"}},{"arcs":[[-60,231,232,233,234,235,236,237,238,239,240]],"type":"Polygon","properties":{"SAL_NAME21":"Blacktown"}},{"arcs":[[241,242,243,244,245,246]],"type":"Polygon","properties":{"SAL_NAME21":"Blakehurst"}},{"arcs":[[-191,247,248,249,250,251,252]],"type":"Polygon","properties":{"SAL_NAME21":"Bondi"}},{"arcs":[[-190,253,254,255,-248]],"type":"Polygon","properties":{"SAL_NAME21":"Bondi Beach"}},{"arcs":[[-185,-253,256,257,258,259]],"type":"Polygon","properties":{"SAL_NAME21":"Bondi Junction"}},{"arcs":[[260,261,262,263,264,265,266]],"type":"Polygon","properties":{"SAL_NAME21":"Bonnyrigg"}},{"arcs":[[-1,267,-263,268,269]],"type":"Polygon","properties":{"SAL_NAME21":"Bonnyrigg Heights"}},{"arcs":[[-7,270,271,272,273]],"type":"Polygon","properties":{"SAL_NAME21":"Bossley Park"}},{"arcs":[[-116,274,275,276]],"type":"Polygon","properties":{"SAL_NAME21":"Botany"}},{"arcs":[[277,278,279,280]],"type":"Polygon","properties":{"SAL_NAME21":"Breakfast Point"}},{"arcs":[[281,282,283,284]],"type":"Polygon","properties":{"SAL_NAME21":"Brighton-Le-Sands"}},{"arcs":[[-251,285,286,287,288]],"type":"Polygon","properties":{"SAL_NAME21":"Bronte"}},{"arcs":[[-34,-163,289,290,291,292,293]],"type":"Polygon","properties":{"SAL_NAME21":"Brookvale"}},{"arcs":[[-58,294,295,296]],"type":"Polygon","properties":{"SAL_NAME21":"Bungarribee"}},{"arcs":[[297,298,299,300,301]],"type":"Polygon","properties":{"SAL_NAME21":"Burwood (NSW)"}},{"arcs":[[-302,302,303,304]],"type":"Polygon","properties":{"SAL_NAME21":"Burwood Heights"}},{"arcs":[[305,306,307,308,309]],"type":"Polygon","properties":{"SAL_NAME21":"Busby"}},{"arcs":[[-281,310,311]],"type":"Polygon","properties":{"SAL_NAME21":"Cabarita (NSW)"}},{"arcs":[[312,313,314,315,316,317,318]],"type":"Polygon","properties":{"SAL_NAME21":"Cabramatta"}},{"arcs":[[-266,319,320,-315,321]],"type":"Polygon","properties":{"SAL_NAME21":"Cabramatta West"}},{"arcs":[[322,323,324]],"type":"Polygon","properties":{"SAL_NAME21":"Camellia"}},{"arcs":[[325,326,327,328,329,330,331]],"type":"Polygon","properties":{"SAL_NAME21":"Cammeray"}},{"arcs":[[-47,332,333,334,335,336,337]],"type":"Polygon","properties":{"SAL_NAME21":"Camperdown (NSW)"}},{"arcs":[[-70,338,339,340,-192,-177,341]],"type":"Polygon","properties":{"SAL_NAME21":"Campsie"}},{"arcs":[[342,343,344]],"type":"Polygon","properties":{"SAL_NAME21":"Canada Bay"}},{"arcs":[[-316,-321,345,346,347,348]],"type":"Polygon","properties":{"SAL_NAME21":"Canley Heights"}},{"arcs":[[-317,-349,349,350,351,352,353]],"type":"Polygon","properties":{"SAL_NAME21":"Canley Vale"}},{"arcs":[[-69,354,355,-339]],"type":"Polygon","properties":{"SAL_NAME21":"Canterbury (NSW)"}},{"arcs":[[-173,356,357,358,359,360,361,362,363]],"type":"Polygon","properties":{"SAL_NAME21":"Carlingford"}},{"arcs":[[-39,364,-221,365,-210,366,-245,367]],"type":"Polygon","properties":{"SAL_NAME21":"Carlton (NSW)"}},{"arcs":[[368,369,370]],"type":"Polygon","properties":{"SAL_NAME21":"Carnes Hill"}},{"arcs":[[-352,371,372,373,374]],"type":"Polygon","properties":{"SAL_NAME21":"Carramar (NSW)"}},{"arcs":[[-246,375,376]],"type":"Polygon","properties":{"SAL_NAME21":"Carss Park"}},{"arcs":[[-73,377,378,379,380,381]],"type":"Polygon","properties":{"SAL_NAME21":"Cartwright"}},{"arcs":[[382,383,384,385,386]],"type":"Polygon","properties":{"SAL_NAME21":"Castle Cove"}},{"arcs":[[-154,387,388,389,390,391,392]],"type":"Polygon","properties":{"SAL_NAME21":"Castle Hill (NSW)"}},{"arcs":[[393,394,395,396,397]],"type":"Polygon","properties":{"SAL_NAME21":"Castlecrag"}},{"arcs":[[398,399,400,401,402,403]],"type":"Polygon","properties":{"SAL_NAME21":"Casula"}},{"arcs":[[-2,-270,404,405,406]],"type":"Polygon","properties":{"SAL_NAME21":"Cecil Hills"}},{"arcs":[[-4,407,408]],"type":"Polygon","properties":{"SAL_NAME21":"Cecil Park"}},{"arcs":[[-259,409,410,411,412,413,414]],"type":"Polygon","properties":{"SAL_NAME21":"Centennial Park (NSW)"}},{"arcs":[[-65,415,416,417,-385,418,419,420]],"type":"Polygon","properties":{"SAL_NAME21":"Chatswood"}},{"arcs":[[-417,421,422,423]],"type":"Polygon","properties":{"SAL_NAME21":"Chatswood West"}},{"arcs":[[-171,424,425,426]],"type":"Polygon","properties":{"SAL_NAME21":"Cheltenham (NSW)"}},{"arcs":[[-392,427,428,429,430]],"type":"Polygon","properties":{"SAL_NAME21":"Cherrybrook"}},{"arcs":[[-86,431,-150,432,433,434,435,436]],"type":"Polygon","properties":{"SAL_NAME21":"Chester Hill"}},{"arcs":[[437,438,439]],"type":"Polygon","properties":{"SAL_NAME21":"Chifley (NSW)"}},{"arcs":[[-335,440,441,442,443,444]],"type":"Polygon","properties":{"SAL_NAME21":"Chippendale"}},{"arcs":[[-128,445,446,447,448,449]],"type":"Polygon","properties":{"SAL_NAME21":"Chipping Norton"}},{"arcs":[[-10,450,451]],"type":"Polygon","properties":{"SAL_NAME21":"Chiswick"}},{"arcs":[[452,453,454,455,456]],"type":"Polygon","properties":{"SAL_NAME21":"Chullora"}},{"arcs":[[-193,-341,457,458]],"type":"Polygon","properties":{"SAL_NAME21":"Clemton Park"}},{"arcs":[[-97,-102,459,460]],"type":"Polygon","properties":{"SAL_NAME21":"Clontarf (NSW)"}},{"arcs":[[-288,461,462,463,464]],"type":"Polygon","properties":{"SAL_NAME21":"Clovelly"}},{"arcs":[[-89,465,466]],"type":"Polygon","properties":{"SAL_NAME21":"Clyde (NSW)"}},{"arcs":[[467,468,469,470,471]],"type":"Polygon","properties":{"SAL_NAME21":"Colebee"}},{"arcs":[[472,473,474,475,476]],"type":"Polygon","properties":{"SAL_NAME21":"Collaroy (NSW)"}},{"arcs":[[-475,477,478,479]],"type":"Polygon","properties":{"SAL_NAME21":"Collaroy Plateau"}},{"arcs":[[480]],"type":"Polygon","properties":{"SAL_NAME21":"Como (NSW)"}},{"arcs":[[-278,-312,481,-345,482,-300,483,484,485,486,487]],"type":"Polygon","properties":{"SAL_NAME21":"Concord"}},{"arcs":[[-486,488,489,490,491,492,493]],"type":"Polygon","properties":{"SAL_NAME21":"Concord West"}},{"arcs":[[-120,494,-125,495,496]],"type":"Polygon","properties":{"SAL_NAME21":"Condell Park"}},{"arcs":[[-243,497,498,499,500]],"type":"Polygon","properties":{"SAL_NAME21":"Connells Point"}},{"arcs":[[501,502,503]],"type":"Polygon","properties":{"SAL_NAME21":"Constitution Hill"}},{"arcs":[[-463,504,505,506]],"type":"Polygon","properties":{"SAL_NAME21":"Coogee (NSW)"}},{"arcs":[[-331,507,508,509,510]],"type":"Polygon","properties":{"SAL_NAME21":"Cremorne (NSW)"}},{"arcs":[[-510,511,512,513,514]],"type":"Polygon","properties":{"SAL_NAME21":"Cremorne Point"}},{"arcs":[[-161,515,516,517,518,519,-478,-474,520,521]],"type":"Polygon","properties":{"SAL_NAME21":"Cromer (NSW)"}},{"arcs":[[-327,522,523,524,525]],"type":"Polygon","properties":{"SAL_NAME21":"Crows Nest (NSW)"}},{"arcs":[[-79,526,-303,-301,527]],"type":"Polygon","properties":{"SAL_NAME21":"Croydon (NSW)"}},{"arcs":[[-71,-342,-176,528,529,-304,-527,-78]],"type":"Polygon","properties":{"SAL_NAME21":"Croydon Park (NSW)"}},{"arcs":[[-293,530,531,532,533]],"type":"Polygon","properties":{"SAL_NAME21":"Curl Curl"}},{"arcs":[[534,535,536]],"type":"Polygon","properties":{"SAL_NAME21":"Daceyville"}},{"arcs":[[537,538,539,540]],"type":"Polygon","properties":{"SAL_NAME21":"Darling Point"}},{"arcs":[[541,542,543,544,545,546]],"type":"Polygon","properties":{"SAL_NAME21":"Darlinghurst"}},{"arcs":[[-336,-445,547,548,549]],"type":"Polygon","properties":{"SAL_NAME21":"Darlington (Sydney - NSW)"}},{"arcs":[[-201,550,551,552]],"type":"Polygon","properties":{"SAL_NAME21":"Davidson"}},{"arcs":[[553,554,555]],"type":"Polygon","properties":{"SAL_NAME21":"Dawes Point"}},{"arcs":[[-471,556,557,558,559]],"type":"Polygon","properties":{"SAL_NAME21":"Dean Park"}},{"arcs":[[-291,560,-521,-473,561,562]],"type":"Polygon","properties":{"SAL_NAME21":"Dee Why"}},{"arcs":[[-133,563,564,565,566]],"type":"Polygon","properties":{"SAL_NAME21":"Denham Court"}},{"arcs":[[567,568,569,570,571]],"type":"Polygon","properties":{"SAL_NAME21":"Denistone"}},{"arcs":[[-572,572,573]],"type":"Polygon","properties":{"SAL_NAME21":"Denistone East"}},{"arcs":[[-570,574,575]],"type":"Polygon","properties":{"SAL_NAME21":"Denistone West"}},{"arcs":[[576,577,578]],"type":"Polygon","properties":{"SAL_NAME21":"Dolls Point"}},{"arcs":[[-59,-297,579,580,-558,581,582,-232]],"type":"Polygon","properties":{"SAL_NAME21":"Doonside"}},{"arcs":[[-187,583,584,-541,585,586]],"type":"Polygon","properties":{"SAL_NAME21":"Double Bay"}},{"arcs":[[587,588,589,590]],"type":"Polygon","properties":{"SAL_NAME21":"Dover Heights"}},{"arcs":[[591,592]],"type":"Polygon","properties":{"SAL_NAME21":"Drummoyne"}},{"arcs":[[-82,593,594,595,596,597,598]],"type":"Polygon","properties":{"SAL_NAME21":"Dulwich Hill"}},{"arcs":[[599,600,601,602,603,604]],"type":"Polygon","properties":{"SAL_NAME21":"Dundas (NSW)"}},{"arcs":[[-359,605,606,-605,607]],"type":"Polygon","properties":{"SAL_NAME21":"Dundas Valley"}},{"arcs":[[-391,608,609,610,-428]],"type":"Polygon","properties":{"SAL_NAME21":"Dural (Hornsby - NSW)"}},{"arcs":[[-139,-226,611,-458,-340,-356,612,-598,613,614,615]],"type":"Polygon","properties":{"SAL_NAME21":"Earlwood"}},{"arcs":[[616,617,618,619]],"type":"Polygon","properties":{"SAL_NAME21":"East Hills"}},{"arcs":[[-552,620,621,622,623,624,625,626]],"type":"Polygon","properties":{"SAL_NAME21":"East Killara"}},{"arcs":[[-623,627,628,629,630]],"type":"Polygon","properties":{"SAL_NAME21":"East Lindfield"}},{"arcs":[[631,632,633,634,635]],"type":"Polygon","properties":{"SAL_NAME21":"East Ryde"}},{"arcs":[[-57,636,637,638,639,640,641,642,-295]],"type":"Polygon","properties":{"SAL_NAME21":"Eastern Creek"}},{"arcs":[[-112,643,644,645]],"type":"Polygon","properties":{"SAL_NAME21":"Eastgardens"}},{"arcs":[[-535,646,647,648,649,650]],"type":"Polygon","properties":{"SAL_NAME21":"Eastlakes"}},{"arcs":[[-358,651,652,653,-573,-571,-576,654,655,-606]],"type":"Polygon","properties":{"SAL_NAME21":"Eastwood (NSW)"}},{"arcs":[[-8,-274,656,-264,-268]],"type":"Polygon","properties":{"SAL_NAME21":"Edensor Park"}},{"arcs":[[-538,-585,657,658,659]],"type":"Polygon","properties":{"SAL_NAME21":"Edgecliff"}},{"arcs":[[-134,-567,660,661,-399]],"type":"Polygon","properties":{"SAL_NAME21":"Edmondson Park"}},{"arcs":[[662,663,664,665]],"type":"Polygon","properties":{"SAL_NAME21":"Elanora Heights"}},{"arcs":[[666,667,668]],"type":"Polygon","properties":{"SAL_NAME21":"Elizabeth Bay"}},{"arcs":[[-406,669,670,671]],"type":"Polygon","properties":{"SAL_NAME21":"Elizabeth Hills"}},{"arcs":[[-298,-305,-530,672,673]],"type":"Polygon","properties":{"SAL_NAME21":"Enfield (NSW)"}},{"arcs":[[674,675,676]],"type":"Polygon","properties":{"SAL_NAME21":"Enmore (Inner West - NSW)"}},{"arcs":[[-172,-427,677,678,-652,-357]],"type":"Polygon","properties":{"SAL_NAME21":"Epping (NSW)"}},{"arcs":[[-600,-607,-656,679,680,681,682]],"type":"Polygon","properties":{"SAL_NAME21":"Ermington"}},{"arcs":[[-24,683,684,685]],"type":"Polygon","properties":{"SAL_NAME21":"Erskineville"}},{"arcs":[[-25,-686,686,-549,687]],"type":"Polygon","properties":{"SAL_NAME21":"Eveleigh"}},{"arcs":[[-351,688,689,690,691,692,-372]],"type":"Polygon","properties":{"SAL_NAME21":"Fairfield (NSW)"}},{"arcs":[[-373,-693,693,694,-434,695]],"type":"Polygon","properties":{"SAL_NAME21":"Fairfield East"}},{"arcs":[[-690,696,697]],"type":"Polygon","properties":{"SAL_NAME21":"Fairfield Heights"}},{"arcs":[[-348,698,699,700,-697,-689,-350]],"type":"Polygon","properties":{"SAL_NAME21":"Fairfield West"}},{"arcs":[[-94,701,702,703]],"type":"Polygon","properties":{"SAL_NAME21":"Fairlight"}},{"arcs":[[-344,704,705,706,707,708,709,-528,-483]],"type":"Polygon","properties":{"SAL_NAME21":"Five Dock"}},{"arcs":[[-46,710,-333]],"type":"Polygon","properties":{"SAL_NAME21":"Forest Lodge"}},{"arcs":[[-622,711,712,713,714,-628]],"type":"Polygon","properties":{"SAL_NAME21":"Forestville (NSW)"}},{"arcs":[[-32,715,-712,-621,-551,-200,716,-159]],"type":"Polygon","properties":{"SAL_NAME21":"Frenchs Forest"}},{"arcs":[[-533,717,718,719]],"type":"Polygon","properties":{"SAL_NAME21":"Freshwater (NSW)"}},{"arcs":[[-129,-450,720,721,-147,722,-496]],"type":"Polygon","properties":{"SAL_NAME21":"Georges Hall"}},{"arcs":[[723,724,725]],"type":"Polygon","properties":{"SAL_NAME21":"Girraween (NSW)"}},{"arcs":[[-636,726,727,728,729,730,731,732]],"type":"Polygon","properties":{"SAL_NAME21":"Gladesville"}},{"arcs":[[-45,733,734,735,-334,-711]],"type":"Polygon","properties":{"SAL_NAME21":"Glebe (NSW)"}},{"arcs":[[-559,-581,736,737]],"type":"Polygon","properties":{"SAL_NAME21":"Glendenning"}},{"arcs":[[-135,-404,738,739,740,741]],"type":"Polygon","properties":{"SAL_NAME21":"Glenfield (NSW)"}},{"arcs":[[-390,742,743,-609]],"type":"Polygon","properties":{"SAL_NAME21":"Glenhaven"}},{"arcs":[[-13,744,745,746,-182,747,748]],"type":"Polygon","properties":{"SAL_NAME21":"Glenwood (NSW)"}},{"arcs":[[-626,749,750,751,752]],"type":"Polygon","properties":{"SAL_NAME21":"Gordon (NSW)"}},{"arcs":[[-88,753,754,755,756,757,758,759,-466]],"type":"Polygon","properties":{"SAL_NAME21":"Granville (NSW)"}},{"arcs":[[-262,760,-309,761,762,-670,-405,-269]],"type":"Polygon","properties":{"SAL_NAME21":"Green Valley (NSW)"}},{"arcs":[[-122,763,-454,764,765,766,-179,-197,767,768,769]],"type":"Polygon","properties":{"SAL_NAME21":"Greenacre"}},{"arcs":[[-273,770,771,-657]],"type":"Polygon","properties":{"SAL_NAME21":"Greenfield Park"}},{"arcs":[[-62,772,773,774,775,776]],"type":"Polygon","properties":{"SAL_NAME21":"Greenwich"}},{"arcs":[[-725,777,778,779,780,781,782,783,784,785,786]],"type":"Polygon","properties":{"SAL_NAME21":"Greystanes"}},{"arcs":[[-436,787,788,789,790,791,792]],"type":"Polygon","properties":{"SAL_NAME21":"Guildford (NSW)"}},{"arcs":[[-790,793,794,795,796]],"type":"Polygon","properties":{"SAL_NAME21":"Guildford West"}},{"arcs":[[-80,-710,797,798,799,800]],"type":"Polygon","properties":{"SAL_NAME21":"Haberfield"}},{"arcs":[[801,802,803,804,805]],"type":"Polygon","properties":{"SAL_NAME21":"Hammondville"}},{"arcs":[[-759,806,807]],"type":"Polygon","properties":{"SAL_NAME21":"Harris Park"}},{"arcs":[[-442,808,809,810]],"type":"Polygon","properties":{"SAL_NAME21":"Haymarket"}},{"arcs":[[-75,811,-310,-761,-261,812]],"type":"Polygon","properties":{"SAL_NAME21":"Heckenberg"}},{"arcs":[[-729,813,814,815]],"type":"Polygon","properties":{"SAL_NAME21":"Henley"}},{"arcs":[[-113,-646,816,817]],"type":"Polygon","properties":{"SAL_NAME21":"Hillsdale"}},{"arcs":[[-308,818,819,820,821,822,-762]],"type":"Polygon","properties":{"SAL_NAME21":"Hinchinbrook (NSW)"}},{"arcs":[[-756,823]],"type":"Polygon","properties":{"SAL_NAME21":"Holroyd"}},{"arcs":[[-740,824,825,-805,826,827,828,829,830]],"type":"Polygon","properties":{"SAL_NAME21":"Holsworthy"}},{"arcs":[[-490,831,832,833,834]],"type":"Polygon","properties":{"SAL_NAME21":"Homebush (NSW)"}},{"arcs":[[-834,835,836,837,838]],"type":"Polygon","properties":{"SAL_NAME21":"Homebush West"}},{"arcs":[[839,840]],"type":"Polygon","properties":{"SAL_NAME21":"Horningsea Park"}},{"arcs":[[841,842,843,844,845,846,847]],"type":"Polygon","properties":{"SAL_NAME21":"Hornsby"}},{"arcs":[[-5,-409,848,-639,849,850]],"type":"Polygon","properties":{"SAL_NAME21":"Horsley Park"}},{"arcs":[[-371,851,-820,852,853]],"type":"Polygon","properties":{"SAL_NAME21":"Hoxton Park"}},{"arcs":[[-635,854,855,856,857,-727]],"type":"Polygon","properties":{"SAL_NAME21":"Hunters Hill"}},{"arcs":[[-56,-241,858,-637]],"type":"Polygon","properties":{"SAL_NAME21":"Huntingwood"}},{"arcs":[[-728,-858,859,860,-814]],"type":"Polygon","properties":{"SAL_NAME21":"Huntleys Cove"}},{"arcs":[[-815,-861,861]],"type":"Polygon","properties":{"SAL_NAME21":"Huntleys Point"}},{"arcs":[[-68,-83,-599,-613,-355]],"type":"Polygon","properties":{"SAL_NAME21":"Hurlstone Park"}},{"arcs":[[-38,862,863,864,-218,865,-222,-365]],"type":"Polygon","properties":{"SAL_NAME21":"Hurstville"}},{"arcs":[[-500,866,867,868,-864,869]],"type":"Polygon","properties":{"SAL_NAME21":"Hurstville Grove"}},{"arcs":[[-28,870,871]],"type":"Polygon","properties":{"SAL_NAME21":"Illawong"}},{"arcs":[[-565,872,873,874]],"type":"Polygon","properties":{"SAL_NAME21":"Ingleburn"}},{"arcs":[[-198,875,876,-664,877,-517,878]],"type":"Polygon","properties":{"SAL_NAME21":"Ingleside"}},{"arcs":[[879]],"type":"Polygon","properties":{"SAL_NAME21":"Kangaroo Point (NSW)"}},{"arcs":[[-170,880,881,-743,-389,882,-183,-747,883]],"type":"Polygon","properties":{"SAL_NAME21":"Kellyville"}},{"arcs":[[-166,884,885,886,887]],"type":"Polygon","properties":{"SAL_NAME21":"Kellyville Ridge"}},{"arcs":[[-412,888,889,-650,890,891,892,893]],"type":"Polygon","properties":{"SAL_NAME21":"Kensington (NSW)"}},{"arcs":[[-625,894,895,896,-750]],"type":"Polygon","properties":{"SAL_NAME21":"Killara (NSW)"}},{"arcs":[[-31,897,898,-713,-716]],"type":"Polygon","properties":{"SAL_NAME21":"Killarney Heights"}},{"arcs":[[-181,899,900,-236,901,-748]],"type":"Polygon","properties":{"SAL_NAME21":"Kings Langley"}},{"arcs":[[-14,-749,-902,-235,902,903]],"type":"Polygon","properties":{"SAL_NAME21":"Kings Park (NSW)"}},{"arcs":[[-536,-651,-890,904,905,906]],"type":"Polygon","properties":{"SAL_NAME21":"Kingsford (NSW)"}},{"arcs":[[-194,-459,-612,-225,-223,-866,-217,907]],"type":"Polygon","properties":{"SAL_NAME21":"Kingsgrove"}},{"arcs":[[908,909,910]],"type":"Polygon","properties":{"SAL_NAME21":"Kirribilli"}},{"arcs":[[-211,-366,-220,911,912,913]],"type":"Polygon","properties":{"SAL_NAME21":"Kogarah"}},{"arcs":[[-209,914,915,-376,-367]],"type":"Polygon","properties":{"SAL_NAME21":"Kogarah Bay"}},{"arcs":[[-203,916,917,918]],"type":"Polygon","properties":{"SAL_NAME21":"Ku-ring-gai Chase"}},{"arcs":[[-514,919,920]],"type":"Polygon","properties":{"SAL_NAME21":"Kurraba Point"}},{"arcs":[[-51,921,922,-283,-110]],"type":"Polygon","properties":{"SAL_NAME21":"Kyeemagh"}},{"arcs":[[-242,923,-498]],"type":"Polygon","properties":{"SAL_NAME21":"Kyle Bay"}},{"arcs":[[924,925,926]],"type":"Polygon","properties":{"SAL_NAME21":"La Perouse"}},{"arcs":[[-196,927,928,929,-768]],"type":"Polygon","properties":{"SAL_NAME21":"Lakemba"}},{"arcs":[[-237,-901,930]],"type":"Polygon","properties":{"SAL_NAME21":"Lalor Park"}},{"arcs":[[-63,-777,931,932,933,934,935,936,937]],"type":"Polygon","properties":{"SAL_NAME21":"Lane Cove"}},{"arcs":[[-64,-938,938,939,940,-422,-416]],"type":"Polygon","properties":{"SAL_NAME21":"Lane Cove North"}},{"arcs":[[-937,941,942,-939]],"type":"Polygon","properties":{"SAL_NAME21":"Lane Cove West"}},{"arcs":[[-148,-722,943,-353,-375,944]],"type":"Polygon","properties":{"SAL_NAME21":"Lansdowne (Canterbury-Bankstown - NSW)"}},{"arcs":[[-318,-354,-944,-721,-449,945]],"type":"Polygon","properties":{"SAL_NAME21":"Lansvale"}},{"arcs":[[946,947,948,949]],"type":"Polygon","properties":{"SAL_NAME21":"Lavender Bay"}},{"arcs":[[-41,950,951,952,953,-800,954]],"type":"Polygon","properties":{"SAL_NAME21":"Leichhardt (NSW)"}},{"arcs":[[-671,-763,-823,955,956]],"type":"Polygon","properties":{"SAL_NAME21":"Len Waters Estate"}},{"arcs":[[-595,957,-953,958]],"type":"Polygon","properties":{"SAL_NAME21":"Lewisham (NSW)"}},{"arcs":[[-492,959,960,961]],"type":"Polygon","properties":{"SAL_NAME21":"Liberty Grove"}},{"arcs":[[-92,962,963,964,-838,965,-457,966,-205]],"type":"Polygon","properties":{"SAL_NAME21":"Lidcombe"}},{"arcs":[[-42,-955,-799,967,968]],"type":"Polygon","properties":{"SAL_NAME21":"Lilyfield"}},{"arcs":[[-424,969,970,-895,-624,-631,971]],"type":"Polygon","properties":{"SAL_NAME21":"Lindfield"}},{"arcs":[[-936,972,-942]],"type":"Polygon","properties":{"SAL_NAME21":"Linley Point"}},{"arcs":[[-439,973,974,-927,975,976]],"type":"Polygon","properties":{"SAL_NAME21":"Little Bay"}},{"arcs":[[-77,977,-313,978,979,-402,980,-378]],"type":"Polygon","properties":{"SAL_NAME21":"Liverpool"}},{"arcs":[[-933,981,982,983]],"type":"Polygon","properties":{"SAL_NAME21":"Longueville"}},{"arcs":[[984,985,986]],"type":"Polygon","properties":{"SAL_NAME21":"Lugarno"}},{"arcs":[[-379,-981,-401,987]],"type":"Polygon","properties":{"SAL_NAME21":"Lurnea"}},{"arcs":[[-741,-831,988,-874,989]],"type":"Polygon","properties":{"SAL_NAME21":"Macquarie Fields"}},{"arcs":[[-136,-742,-990,-873,-564]],"type":"Polygon","properties":{"SAL_NAME21":"Macquarie Links"}},{"arcs":[[-896,-971,990,991,992,993]],"type":"Polygon","properties":{"SAL_NAME21":"Macquarie Park"}},{"arcs":[[-438,994,995,996,-974]],"type":"Polygon","properties":{"SAL_NAME21":"Malabar"}},{"arcs":[[-703,997,998,999,1000]],"type":"Polygon","properties":{"SAL_NAME21":"Manly (NSW)"}},{"arcs":[[-36,1001,-998,-702,-100,1002]],"type":"Polygon","properties":{"SAL_NAME21":"Manly Vale"}},{"arcs":[[-234,1003,1004,-903]],"type":"Polygon","properties":{"SAL_NAME21":"Marayong"}},{"arcs":[[-645,1005,-906,1006,1007,1008,-996,1009,-817]],"type":"Polygon","properties":{"SAL_NAME21":"Maroubra"}},{"arcs":[[-597,1010,1011,-675,1012,1013,1014,1015,1016,-614]],"type":"Polygon","properties":{"SAL_NAME21":"Marrickville"}},{"arcs":[[-468,1017,1018]],"type":"Polygon","properties":{"SAL_NAME21":"Marsden Park"}},{"arcs":[[-653,-679,1019,1020,-992,1021,1022]],"type":"Polygon","properties":{"SAL_NAME21":"Marsfield"}},{"arcs":[[-22,1023,-648,1024,-276,1025,-922,-50,1026,1027]],"type":"Polygon","properties":{"SAL_NAME21":"Mascot"}},{"arcs":[[-114,-818,-1010,-995,-440,-977,1028,1029,1030]],"type":"Polygon","properties":{"SAL_NAME21":"Matraville"}},{"arcs":[[1031,1032,1033]],"type":"Polygon","properties":{"SAL_NAME21":"Mays Hill"}},{"arcs":[[-949,1034,1035,1036]],"type":"Polygon","properties":{"SAL_NAME21":"McMahons Point"}},{"arcs":[[1037,1038,1039,1040]],"type":"Polygon","properties":{"SAL_NAME21":"Meadowbank (NSW)"}},{"arcs":[[-681,1041,-1040,1042]],"type":"Polygon","properties":{"SAL_NAME21":"Melrose Park (NSW)"}},{"arcs":[[-26,-872,1043,-829,1044,1045,1046,1047]],"type":"Polygon","properties":{"SAL_NAME21":"Menai"}},{"arcs":[[-755,1048,-792,1049,-781,1050,1051,-1032,1052,-757,-824]],"type":"Polygon","properties":{"SAL_NAME21":"Merrylands"}},{"arcs":[[-782,-1050,-791,-797,1053]],"type":"Polygon","properties":{"SAL_NAME21":"Merrylands West"}},{"arcs":[[-384,1054,-397,1055,1056,-419]],"type":"Polygon","properties":{"SAL_NAME21":"Middle Cove"}},{"arcs":[[-822,1057,-956]],"type":"Polygon","properties":{"SAL_NAME21":"Middleton Grange"}},{"arcs":[[-307,1058,-381,-853,-819]],"type":"Polygon","properties":{"SAL_NAME21":"Miller"}},{"arcs":[[-132,1059,-556,1060,1061]],"type":"Polygon","properties":{"SAL_NAME21":"Millers Point"}},{"arcs":[[-127,1062,1063,1064,-803,1065,-446]],"type":"Polygon","properties":{"SAL_NAME21":"Milperra"}},{"arcs":[[-910,1066,-947,1067]],"type":"Polygon","properties":{"SAL_NAME21":"Milsons Point"}},{"arcs":[[-641,1068]],"type":"Polygon","properties":{"SAL_NAME21":"Minchinbury"}},{"arcs":[[-285,1069,1070,1071,-913,1072]],"type":"Polygon","properties":{"SAL_NAME21":"Monterey"}},{"arcs":[[-413,-894,1073,1074,1075,1076]],"type":"Polygon","properties":{"SAL_NAME21":"Moore Park"}},{"arcs":[[-403,-980,1077,-447,-1066,-802,1078,-825,-739]],"type":"Polygon","properties":{"SAL_NAME21":"Moorebank"}},{"arcs":[[1079,1080,1081,1082,1083]],"type":"Polygon","properties":{"SAL_NAME21":"Mortdale"}},{"arcs":[[-279,-488,1084]],"type":"Polygon","properties":{"SAL_NAME21":"Mortlake (NSW)"}},{"arcs":[[-509,1085,-512]],"type":"Polygon","properties":{"SAL_NAME21":"Mosman"}},{"arcs":[[-123,-770,1086]],"type":"Polygon","properties":{"SAL_NAME21":"Mount Lewis"}},{"arcs":[[-76,-813,-267,-322,-314,-978]],"type":"Polygon","properties":{"SAL_NAME21":"Mount Pritchard"}},{"arcs":[[-67,1087,1088,-328,-526,1089]],"type":"Polygon","properties":{"SAL_NAME21":"Naremburn"}},{"arcs":[[-476,-480,1090,-519,1091]],"type":"Polygon","properties":{"SAL_NAME21":"Narrabeen"}},{"arcs":[[-162,-522,-561,-290]],"type":"Polygon","properties":{"SAL_NAME21":"Narraweena"}},{"arcs":[[-215,1092,1093]],"type":"Polygon","properties":{"SAL_NAME21":"Narwee"}},{"arcs":[[-332,-511,-515,-921,1094,1095]],"type":"Polygon","properties":{"SAL_NAME21":"Neutral Bay"}},{"arcs":[[-964,1096,1097]],"type":"Polygon","properties":{"SAL_NAME21":"Newington (NSW)"}},{"arcs":[[-337,-550,-687,-685,1098,-1013,-677,1099]],"type":"Polygon","properties":{"SAL_NAME21":"Newtown (NSW)"}},{"arcs":[[-470,1100,1101]],"type":"Polygon","properties":{"SAL_NAME21":"Nirimba Fields"}},{"arcs":[[-842,1102,1103]],"type":"Polygon","properties":{"SAL_NAME21":"Normanhurst"}},{"arcs":[[-29,-1003,-99,1104]],"type":"Polygon","properties":{"SAL_NAME21":"North Balgowlah"}},{"arcs":[[-255,1105,-588,1106]],"type":"Polygon","properties":{"SAL_NAME21":"North Bondi"}},{"arcs":[[-292,-563,1107,-531]],"type":"Polygon","properties":{"SAL_NAME21":"North Curl Curl"}},{"arcs":[[-426,1108,1109,-1020,-678]],"type":"Polygon","properties":{"SAL_NAME21":"North Epping"}},{"arcs":[[-169,1110,-881]],"type":"Polygon","properties":{"SAL_NAME21":"North Kellyville"}},{"arcs":[[-35,-294,-534,-720,1111,-999,-1002]],"type":"Polygon","properties":{"SAL_NAME21":"North Manly"}},{"arcs":[[-666,1112,1113,1114]],"type":"Polygon","properties":{"SAL_NAME21":"North Narrabeen"}},{"arcs":[[-362,1115,1116,1117,1118,1119]],"type":"Polygon","properties":{"SAL_NAME21":"North Parramatta"}},{"arcs":[[-156,1120,-363,-1120,1121]],"type":"Polygon","properties":{"SAL_NAME21":"North Rocks"}},{"arcs":[[-423,-941,1122,-633,1123,-1022,-991,-970]],"type":"Polygon","properties":{"SAL_NAME21":"North Ryde"}},{"arcs":[[-485,1124,-832,-489]],"type":"Polygon","properties":{"SAL_NAME21":"North Strathfield"}},{"arcs":[[-326,-1096,1125,-911,-1068,-950,-1037,1126,1127,-523]],"type":"Polygon","properties":{"SAL_NAME21":"North Sydney"}},{"arcs":[[1128,1129,1130,1131,1132,1133]],"type":"Polygon","properties":{"SAL_NAME21":"North Turramurra"}},{"arcs":[[-846,1134,-1133,1135]],"type":"Polygon","properties":{"SAL_NAME21":"North Wahroonga"}},{"arcs":[[-420,-1057,1136,1137]],"type":"Polygon","properties":{"SAL_NAME21":"North Willoughby"}},{"arcs":[[-329,-1089,1138,-394,1139]],"type":"Polygon","properties":{"SAL_NAME21":"Northbridge (NSW)"}},{"arcs":[[-157,-1122,-1119,1140,1141,-502,1142,1143]],"type":"Polygon","properties":{"SAL_NAME21":"Northmead"}},{"arcs":[[-776,1144,-982,-932]],"type":"Polygon","properties":{"SAL_NAME21":"Northwood (NSW)"}},{"arcs":[[-153,-184,-883,-388]],"type":"Polygon","properties":{"SAL_NAME21":"Norwest"}},{"arcs":[[-361,1145,-603,1146,-1116]],"type":"Polygon","properties":{"SAL_NAME21":"Oatlands (NSW)"}},{"arcs":[[-868,1147,-1080,1148]],"type":"Polygon","properties":{"SAL_NAME21":"Oatley"}},{"arcs":[[-435,-695,1149,-788]],"type":"Polygon","properties":{"SAL_NAME21":"Old Guildford"}},{"arcs":[[-504,1150,1151,1152,1153,-1143]],"type":"Polygon","properties":{"SAL_NAME21":"Old Toongabbie"}},{"arcs":[[-160,-717,-199,-879,-516]],"type":"Polygon","properties":{"SAL_NAME21":"Oxford Falls"}},{"arcs":[[1154]],"type":"Polygon","properties":{"SAL_NAME21":"Oyster Bay"}},{"arcs":[[-414,-1077,1155,-547,1156,-659,1157]],"type":"Polygon","properties":{"SAL_NAME21":"Paddington (NSW)"}},{"arcs":[[-118,1158,1159,1160,1161,1162]],"type":"Polygon","properties":{"SAL_NAME21":"Padstow"}},{"arcs":[[-1162,1163,1164,1165]],"type":"Polygon","properties":{"SAL_NAME21":"Padstow Heights"}},{"arcs":[[-117,-277,-1025,-647,-537,-907,-1006,-644]],"type":"Polygon","properties":{"SAL_NAME21":"Pagewood"}},{"arcs":[[-619,1166,-1064,1167,1168]],"type":"Polygon","properties":{"SAL_NAME21":"Panania"}},{"arcs":[[-16,1169,1170,1171,-745]],"type":"Polygon","properties":{"SAL_NAME21":"Parklea"}},{"arcs":[[-324,1172,-807,-758,-1053,-1034,1173,-1117,-1147,-602,1174]],"type":"Polygon","properties":{"SAL_NAME21":"Parramatta"}},{"arcs":[[-213,1175,-1083,1176,-986,1177,1178]],"type":"Polygon","properties":{"SAL_NAME21":"Peakhurst"}},{"arcs":[[-987,-1177,-1082,1179]],"type":"Polygon","properties":{"SAL_NAME21":"Peakhurst Heights"}},{"arcs":[[-240,1180,-785,1181,-850,-638,-859]],"type":"Polygon","properties":{"SAL_NAME21":"Pemulwuy"}},{"arcs":[[-724,1182,-1152,1183,-778]],"type":"Polygon","properties":{"SAL_NAME21":"Pendle Hill"}},{"arcs":[[-175,1184,-430,1185,1186,1187,1188,-1109,-425]],"type":"Polygon","properties":{"SAL_NAME21":"Pennant Hills"}},{"arcs":[[-212,-865,-869,-1149,-1084,-1176]],"type":"Polygon","properties":{"SAL_NAME21":"Penshurst (NSW)"}},{"arcs":[[-596,-959,-952,1189,-1011]],"type":"Polygon","properties":{"SAL_NAME21":"Petersham"}},{"arcs":[[-926,1190,1191,-1029,-976]],"type":"Polygon","properties":{"SAL_NAME21":"Phillip Bay"}},{"arcs":[[-620,-1169,1192,1193,1194,-1047,1195,1196]],"type":"Polygon","properties":{"SAL_NAME21":"Picnic Point"}},{"arcs":[[-617,-1197,1197,-1045,-828,1198]],"type":"Polygon","properties":{"SAL_NAME21":"Pleasure Point"}},{"arcs":[[-188,-587,1199,1200]],"type":"Polygon","properties":{"SAL_NAME21":"Point Piper"}},{"arcs":[[-1030,-1192,1201]],"type":"Polygon","properties":{"SAL_NAME21":"Port Botany"}},{"arcs":[[-231,1202,-456,1203]],"type":"Polygon","properties":{"SAL_NAME21":"Potts Hill"}},{"arcs":[[-545,1204,1205,-667,1206]],"type":"Polygon","properties":{"SAL_NAME21":"Potts Point"}},{"arcs":[[-272,1207,1208,-700,1209,-771]],"type":"Polygon","properties":{"SAL_NAME21":"Prairiewood"}},{"arcs":[[-369,-854,-380,-988,-400,-662,1210,-840]],"type":"Polygon","properties":{"SAL_NAME21":"Prestons"}},{"arcs":[[-239,1211,1212,-786,-1181]],"type":"Polygon","properties":{"SAL_NAME21":"Prospect (NSW)"}},{"arcs":[[-124,-1087,-769,-930,1213,1214,1215,-1159]],"type":"Polygon","properties":{"SAL_NAME21":"Punchbowl (Canterbury-Bankstown - NSW)"}},{"arcs":[[-732,1216,1217,1218]],"type":"Polygon","properties":{"SAL_NAME21":"Putney"}},{"arcs":[[-752,1219,1220,1221]],"type":"Polygon","properties":{"SAL_NAME21":"Pymble"}},{"arcs":[[-735,1222,1223,1224]],"type":"Polygon","properties":{"SAL_NAME21":"Pyrmont"}},{"arcs":[[-15,-904,-1005,1225,-582,-557,-1102,1226,1227,-1170]],"type":"Polygon","properties":{"SAL_NAME21":"Quakers Hill"}},{"arcs":[[-258,1228,1229,-410]],"type":"Polygon","properties":{"SAL_NAME21":"Queens Park (NSW)"}},{"arcs":[[-719,1230,-1000,-1112]],"type":"Polygon","properties":{"SAL_NAME21":"Queenscliff (NSW)"}},{"arcs":[[-207,-914,-1072,1231,1232]],"type":"Polygon","properties":{"SAL_NAME21":"Ramsgate"}},{"arcs":[[-1071,1233,1234,-1232]],"type":"Polygon","properties":{"SAL_NAME21":"Ramsgate Beach"}},{"arcs":[[-411,-1230,1235,-464,-507,1236,-1007,-905,-889]],"type":"Polygon","properties":{"SAL_NAME21":"Randwick"}},{"arcs":[[-17,-688,-548,-444,1237,-1075,1238]],"type":"Polygon","properties":{"SAL_NAME21":"Redfern"}},{"arcs":[[-84,-206,-967,-1203,-230,1239]],"type":"Polygon","properties":{"SAL_NAME21":"Regents Park (NSW)"}},{"arcs":[[-119,-1163,-1166,1240,-1193,-1168,-1063,-126,-495]],"type":"Polygon","properties":{"SAL_NAME21":"Revesby"}},{"arcs":[[-1165,1241,-1194,-1241]],"type":"Polygon","properties":{"SAL_NAME21":"Revesby Heights"}},{"arcs":[[-493,-962,1242]],"type":"Polygon","properties":{"SAL_NAME21":"Rhodes"}},{"arcs":[[-934,-984,1243]],"type":"Polygon","properties":{"SAL_NAME21":"Riverview (NSW)"}},{"arcs":[[-214,-1179,1244,-1160,-1216,1245,-1093]],"type":"Polygon","properties":{"SAL_NAME21":"Riverwood"}},{"arcs":[[-53,-111,-282,-1073,-912,-219,-142]],"type":"Polygon","properties":{"SAL_NAME21":"Rockdale"}},{"arcs":[[-708,1246,1247]],"type":"Polygon","properties":{"SAL_NAME21":"Rodd Point"}},{"arcs":[[-453,-966,-837,1248,-765]],"type":"Polygon","properties":{"SAL_NAME21":"Rookwood (NSW)"}},{"arcs":[[-296,-643,1249,-737,-580]],"type":"Polygon","properties":{"SAL_NAME21":"Rooty Hill"}},{"arcs":[[-189,-1201,1250,1251,-589,-1106,-254]],"type":"Polygon","properties":{"SAL_NAME21":"Rose Bay (NSW)"}},{"arcs":[[-21,-165,1252,-891,-649,-1024]],"type":"Polygon","properties":{"SAL_NAME21":"Rosebery (NSW)"}},{"arcs":[[-90,-467,-760,-808,-1173,-323,1253,1254]],"type":"Polygon","properties":{"SAL_NAME21":"Rosehill (NSW)"}},{"arcs":[[-195,-908,-216,-1094,-1246,-1215,1255,-928]],"type":"Polygon","properties":{"SAL_NAME21":"Roselands"}},{"arcs":[[-386,-418,-972,-630,1256]],"type":"Polygon","properties":{"SAL_NAME21":"Roseville"}},{"arcs":[[-387,-1257,-629,-715,1257]],"type":"Polygon","properties":{"SAL_NAME21":"Roseville Chase"}},{"arcs":[[-167,-888,1258]],"type":"Polygon","properties":{"SAL_NAME21":"Rouse Hill"}},{"arcs":[[-43,-969,1259,-106,1260]],"type":"Polygon","properties":{"SAL_NAME21":"Rozelle"}},{"arcs":[[-539,-660,-1157,-546,-1207,-669,1261]],"type":"Polygon","properties":{"SAL_NAME21":"Rushcutters Bay"}},{"arcs":[[-11,-452,1262,-592,1263,-1247,-707,1264]],"type":"Polygon","properties":{"SAL_NAME21":"Russell Lea"}},{"arcs":[[-325,-1175,-601,-683,1265,1266,-1254]],"type":"Polygon","properties":{"SAL_NAME21":"Rydalmere"}},{"arcs":[[-568,-574,-654,-1023,-1124,-632,-733,-1219,1267,-1038,1268]],"type":"Polygon","properties":{"SAL_NAME21":"Ryde"}},{"arcs":[[-74,-382,-1059,-306,-812]],"type":"Polygon","properties":{"SAL_NAME21":"Sadleir"}},{"arcs":[[-578,1269,1270]],"type":"Polygon","properties":{"SAL_NAME21":"Sandringham (NSW)"}},{"arcs":[[-1046,-1198,-1196]],"type":"Polygon","properties":{"SAL_NAME21":"Sandy Point (NSW)"}},{"arcs":[[-208,-1233,-1235,1271,-579,-1271,1272,-915]],"type":"Polygon","properties":{"SAL_NAME21":"Sans Souci"}},{"arcs":[[-469,-1019,1273,1274,1275,1276,-1227,-1101]],"type":"Polygon","properties":{"SAL_NAME21":"Schofields"}},{"arcs":[[-30,-1105,-98,-461,1277,-898]],"type":"Polygon","properties":{"SAL_NAME21":"Seaforth (NSW)"}},{"arcs":[[-85,-1240,-229,1278,-145,-432]],"type":"Polygon","properties":{"SAL_NAME21":"Sefton"}},{"arcs":[[-151,1279,1280,-1212,-238,-931,-900]],"type":"Polygon","properties":{"SAL_NAME21":"Seven Hills (NSW)"}},{"arcs":[[-91,-1255,-1267,1281,1282,-1097,-963]],"type":"Polygon","properties":{"SAL_NAME21":"Silverwater (Parramatta - NSW)"}},{"arcs":[[-691,-698,-701,-1209,1283,-783,1284,-795,1285]],"type":"Polygon","properties":{"SAL_NAME21":"Smithfield (NSW)"}},{"arcs":[[-506,1286,-1008,-1237]],"type":"Polygon","properties":{"SAL_NAME21":"South Coogee"}},{"arcs":[[-87,-437,-793,-1049,-754]],"type":"Polygon","properties":{"SAL_NAME21":"South Granville"}},{"arcs":[[-37,-368,-244,-501,-870,-863]],"type":"Polygon","properties":{"SAL_NAME21":"South Hurstville"}},{"arcs":[[-993,-1021,-1110,-1189,1287,1288,1289]],"type":"Polygon","properties":{"SAL_NAME21":"South Turramurra"}},{"arcs":[[-780,1290,1291,-1051]],"type":"Polygon","properties":{"SAL_NAME21":"South Wentworthville"}},{"arcs":[[-202,-553,-627,-753,-1222,1292,-1130,1293,1294,-917]],"type":"Polygon","properties":{"SAL_NAME21":"St Ives (NSW)"}},{"arcs":[[-1129,1295,-1294]],"type":"Polygon","properties":{"SAL_NAME21":"St Ives Chase"}},{"arcs":[[-265,-772,1296,-346,-320]],"type":"Polygon","properties":{"SAL_NAME21":"St Johns Park"}},{"arcs":[[-61,-1090,-525,1297,-773]],"type":"Polygon","properties":{"SAL_NAME21":"St Leonards (NSW)"}},{"arcs":[[-23,-1028,1298,1299,-1014,-1099,-684]],"type":"Polygon","properties":{"SAL_NAME21":"St Peters (NSW)"}},{"arcs":[[-746,-1172,1300,-885,-884]],"type":"Polygon","properties":{"SAL_NAME21":"Stanhope Gardens"}},{"arcs":[[-40,-338,-1100,-676,-1012,-1190,-951]],"type":"Polygon","properties":{"SAL_NAME21":"Stanmore (NSW)"}},{"arcs":[[-299,-674,1301,-766,-1249,-836,-833,-1125,-484]],"type":"Polygon","properties":{"SAL_NAME21":"Strathfield (NSW)"}},{"arcs":[[-180,-767,-1302,-673,-529]],"type":"Polygon","properties":{"SAL_NAME21":"Strathfield South"}},{"arcs":[[-81,-801,-954,-958,-594]],"type":"Polygon","properties":{"SAL_NAME21":"Summer Hill (Inner West - NSW)"}},{"arcs":[[-443,-811,1302,-542,-1156,-1076,-1238]],"type":"Polygon","properties":{"SAL_NAME21":"Surry Hills"}},{"arcs":[[-1015,-1300,1303]],"type":"Polygon","properties":{"SAL_NAME21":"Sydenham (NSW)"}},{"arcs":[[-130,-1062,1304,1305,1306,-543,-1303,-810,1307,-1224,1308]],"type":"Polygon","properties":{"SAL_NAME21":"Sydney"}},{"arcs":[[-491,-835,-839,-965,-1098,-1283,1309,1310,1311,-960]],"type":"Polygon","properties":{"SAL_NAME21":"Sydney Olympic Park"}},{"arcs":[[-1275,1312]],"type":"Polygon","properties":{"SAL_NAME21":"Tallawong"}},{"arcs":[[-250,1313,-286]],"type":"Polygon","properties":{"SAL_NAME21":"Tamarama"}},{"arcs":[[-360,-608,-604,-1146]],"type":"Polygon","properties":{"SAL_NAME21":"Telopea"}},{"arcs":[[-49,1314,-1016,-1304,-1299,-1027]],"type":"Polygon","properties":{"SAL_NAME21":"Tempe"}},{"arcs":[[-731,1315,-1217]],"type":"Polygon","properties":{"SAL_NAME21":"Tennyson Point"}},{"arcs":[[-204,-919,1316,-876]],"type":"Polygon","properties":{"SAL_NAME21":"Terrey Hills"}},{"arcs":[[-886,-1301,-1171,-1228,-1277,1317]],"type":"Polygon","properties":{"SAL_NAME21":"The Ponds"}},{"arcs":[[-555,1318,-1305,-1061]],"type":"Polygon","properties":{"SAL_NAME21":"The Rocks (Sydney - NSW)"}},{"arcs":[[-843,-1104,1319,-1187,1320]],"type":"Polygon","properties":{"SAL_NAME21":"Thornleigh"}},{"arcs":[[-726,-787,-1213,-1281,-1153,-1183]],"type":"Polygon","properties":{"SAL_NAME21":"Toongabbie (NSW)"}},{"arcs":[[-1131,-1293,-1221,1321,-1289,1322,1323,1324]],"type":"Polygon","properties":{"SAL_NAME21":"Turramurra"}},{"arcs":[[-55,-144,-140,-616,1325]],"type":"Polygon","properties":{"SAL_NAME21":"Turrella"}},{"arcs":[[-441,-736,-1225,-1308,-809]],"type":"Polygon","properties":{"SAL_NAME21":"Ultimo"}},{"arcs":[[-590,-1252,1326,1327,1328]],"type":"Polygon","properties":{"SAL_NAME21":"Vaucluse"}},{"arcs":[[-149,-945,-374,-696,-433]],"type":"Polygon","properties":{"SAL_NAME21":"Villawood"}},{"arcs":[[-618,-1199,-827,-804,-1065,-1167]],"type":"Polygon","properties":{"SAL_NAME21":"Voyager Point"}},{"arcs":[[-847,-1136,-1132,-1325,1329,-1323,-1288,-1188,-1320,-1103,1330]],"type":"Polygon","properties":{"SAL_NAME21":"Wahroonga"}},{"arcs":[[-848,-1331]],"type":"Polygon","properties":{"SAL_NAME21":"Waitara"}},{"arcs":[[-347,-1297,-1210,-699]],"type":"Polygon","properties":{"SAL_NAME21":"Wakeley"}},{"arcs":[[-12,-1265,-706,1331]],"type":"Polygon","properties":{"SAL_NAME21":"Wareemba"}},{"arcs":[[-1324,-1330]],"type":"Polygon","properties":{"SAL_NAME21":"Warrawee"}},{"arcs":[[-1114,1332]],"type":"Polygon","properties":{"SAL_NAME21":"Warriewood"}},{"arcs":[[-319,-946,-448,-1078,-979]],"type":"Polygon","properties":{"SAL_NAME21":"Warwick Farm"}},{"arcs":[[-18,-1239,-1074,-893,1333]],"type":"Polygon","properties":{"SAL_NAME21":"Waterloo (NSW)"}},{"arcs":[[-1328,1334]],"type":"Polygon","properties":{"SAL_NAME21":"Watsons Bay"}},{"arcs":[[-806,-826,-1079]],"type":"Polygon","properties":{"SAL_NAME21":"Wattle Grove (NSW)"}},{"arcs":[[-252,-289,-465,-1236,-1229,-257]],"type":"Polygon","properties":{"SAL_NAME21":"Waverley (NSW)"}},{"arcs":[[-1036,1335,1336,-1127]],"type":"Polygon","properties":{"SAL_NAME21":"Waverton"}},{"arcs":[[-1311,1337]],"type":"Polygon","properties":{"SAL_NAME21":"Wentworth Point"}},{"arcs":[[-503,-1142,1338,-1291,-779,-1184,-1151]],"type":"Polygon","properties":{"SAL_NAME21":"Wentworthville"}},{"arcs":[[-155,-393,-431,-1185,-174,-364,-1121]],"type":"Polygon","properties":{"SAL_NAME21":"West Pennant Hills"}},{"arcs":[[-751,-897,-994,-1290,-1322,-1220]],"type":"Polygon","properties":{"SAL_NAME21":"West Pymble"}},{"arcs":[[-569,-1269,-1041,-1042,-680,-655,-575]],"type":"Polygon","properties":{"SAL_NAME21":"West Ryde"}},{"arcs":[[-429,-611,1339,-844,-1321,-1186]],"type":"Polygon","properties":{"SAL_NAME21":"Westleigh"}},{"arcs":[[-1033,-1052,-1292,-1339,-1141,-1118,-1174]],"type":"Polygon","properties":{"SAL_NAME21":"Westmead"}},{"arcs":[[-6,-851,-1182,-784,-1284,-1208,-271]],"type":"Polygon","properties":{"SAL_NAME21":"Wetherill Park"}},{"arcs":[[-479,-520,-1091]],"type":"Polygon","properties":{"SAL_NAME21":"Wheeler Heights"}},{"arcs":[[-929,-1256,-1214]],"type":"Polygon","properties":{"SAL_NAME21":"Wiley Park"}},{"arcs":[[-66,-421,-1138,1340,-395,-1139,-1088]],"type":"Polygon","properties":{"SAL_NAME21":"Willoughby (NSW)"}},{"arcs":[[-396,-1341,-1137,-1056]],"type":"Polygon","properties":{"SAL_NAME21":"Willoughby East"}},{"arcs":[[-158,-1144,-1154,-1280]],"type":"Polygon","properties":{"SAL_NAME21":"Winston Hills"}},{"arcs":[[-48,-1326,-615,-1017,-1315]],"type":"Polygon","properties":{"SAL_NAME21":"Wolli Creek"}},{"arcs":[[-524,-1128,-1337,1341,-774,-1298]],"type":"Polygon","properties":{"SAL_NAME21":"Wollstonecraft"}},{"arcs":[[-233,-583,-1226,-1004]],"type":"Polygon","properties":{"SAL_NAME21":"Woodcroft (NSW)"}},{"arcs":[[-796,-1285,-1054]],"type":"Polygon","properties":{"SAL_NAME21":"Woodpark"}},{"arcs":[[-186,-260,-415,-1158,-658,-584]],"type":"Polygon","properties":{"SAL_NAME21":"Woollahra"}},{"arcs":[[-544,-1307,1342,-1205]],"type":"Polygon","properties":{"SAL_NAME21":"Woolloomooloo"}},{"arcs":[[-856,1343]],"type":"Polygon","properties":{"SAL_NAME21":"Woolwich"}},{"arcs":[[-121,-497,-723,-146,-1279,-228,-1204,-455,-764]],"type":"Polygon","properties":{"SAL_NAME21":"Yagoona"}},{"arcs":[[-692,-1286,-794,-789,-1150,-694]],"type":"Polygon","properties":{"SAL_NAME21":"Yennora"}},{"arcs":[[-19,-1334,-892,-1253,-164]],"type":"Polygon","properties":{"SAL_NAME21":"Zetland"}}]},"newcastle":{"type":"GeometryCollection","geometries":[{"arcs":[[1344,1345,1346,1347,1348,1349,1350,1351]],"type":"Polygon","properties":{"SAL_NAME21":"Adamstown"}},{"arcs":[[-1347,1352,1353,1354,1355,1356]],"type":"Polygon","properties":{"SAL_NAME21":"Adamstown Heights"}},{"arcs":[[1357,1358,1359,1360,1361]],"type":"Polygon","properties":{"SAL_NAME21":"Bar Beach"}},{"arcs":[[1362,1363,1364]],"type":"Polygon","properties":{"SAL_NAME21":"Bennetts Green"}},{"arcs":[[1365,1366,1367,1368]],"type":"Polygon","properties":{"SAL_NAME21":"Birmingham Gardens"}},{"arcs":[[-1350,1369,1370,1371,1372,1373,1374]],"type":"Polygon","properties":{"SAL_NAME21":"Broadmeadow"}},{"arcs":[[-1366,1375,1376,1377,1378,1379,1380]],"type":"Polygon","properties":{"SAL_NAME21":"Callaghan"}},{"arcs":[[1381,1382,1383,1384,1385,1386,1387]],"type":"Polygon","properties":{"SAL_NAME21":"Cardiff (NSW)"}},{"arcs":[[-1387,1388,1389,1390,1391,1392]],"type":"Polygon","properties":{"SAL_NAME21":"Cardiff Heights"}},{"arcs":[[-1383,1393,1394,1395,1396]],"type":"Polygon","properties":{"SAL_NAME21":"Cardiff South"}},{"arcs":[[1397,1398,1399]],"type":"Polygon","properties":{"SAL_NAME21":"Carrington (Newcastle - NSW)"}},{"arcs":[[-1355,1400,1401,1402,1403,1404,1405,1406,1407]],"type":"Polygon","properties":{"SAL_NAME21":"Charlestown (NSW)"}},{"arcs":[[-1361,1408,1409,1410,1411,1412]],"type":"Polygon","properties":{"SAL_NAME21":"Cooks Hill"}},{"arcs":[[1413,1414,1415]],"type":"Polygon","properties":{"SAL_NAME21":"Dudley"}},{"arcs":[[1416,1417,1418,1419]],"type":"Polygon","properties":{"SAL_NAME21":"Eleebana"}},{"arcs":[[-1390,1420,1421,1422,1423,1424]],"type":"Polygon","properties":{"SAL_NAME21":"Elermore Vale"}},{"arcs":[[1425,1426,1427,1428,1429,1430]],"type":"Polygon","properties":{"SAL_NAME21":"Fern Bay"}},{"arcs":[[[1431,1432,1433]],[[1434,1435,1436]]],"type":"MultiPolygon","properties":{"SAL_NAME21":"Fletcher (NSW)"}},{"arcs":[[[-1429,1437]],[[-1431,1438]]],"type":"MultiPolygon","properties":{"SAL_NAME21":"Fullerton Cove"}},{"arcs":[[-1388,-1393,1439,1440,1441,-1407,1442]],"type":"Polygon","properties":{"SAL_NAME21":"Garden Suburb"}},{"arcs":[[-1364,1443,1444,-1404,1445,1446,1447]],"type":"Polygon","properties":{"SAL_NAME21":"Gateshead"}},{"arcs":[[-1372,1448,1449,1450]],"type":"Polygon","properties":{"SAL_NAME21":"Georgetown (NSW)"}},{"arcs":[[-1386,1451,-1421,-1389]],"type":"Polygon","properties":{"SAL_NAME21":"Glendale (NSW)"}},{"arcs":[[-1374,1452,1453,1454,1455,1456]],"type":"Polygon","properties":{"SAL_NAME21":"Hamilton (NSW)"}},{"arcs":[[-1456,1457,1458]],"type":"Polygon","properties":{"SAL_NAME21":"Hamilton East"}},{"arcs":[[-1373,-1451,1459,1460,-1453]],"type":"Polygon","properties":{"SAL_NAME21":"Hamilton North"}},{"arcs":[[-1351,-1375,-1457,-1459,1461,-1410,1462,1463]],"type":"Polygon","properties":{"SAL_NAME21":"Hamilton South"}},{"arcs":[[-1435,1464,1465,1466,1467]],"type":"Polygon","properties":{"SAL_NAME21":"Hexham (NSW)"}},{"arcs":[[-1354,1468,1469,1470,-1401]],"type":"Polygon","properties":{"SAL_NAME21":"Highfields (NSW)"}},{"arcs":[[-1382,-1443,-1406,1471,1472,-1394]],"type":"Polygon","properties":{"SAL_NAME21":"Hillsborough (Lake Macquarie - NSW)"}},{"arcs":[[-1454,-1461,1473,1474,1475,1476]],"type":"Polygon","properties":{"SAL_NAME21":"Islington"}},{"arcs":[[-1367,1477,1478,1479]],"type":"Polygon","properties":{"SAL_NAME21":"Jesmond"}},{"arcs":[[1480,1481,1482]],"type":"Polygon","properties":{"SAL_NAME21":"Jewells"}},{"arcs":[[-1402,-1471,1483]],"type":"Polygon","properties":{"SAL_NAME21":"Kahibah"}},{"arcs":[[1484,1485]],"type":"Polygon","properties":{"SAL_NAME21":"Kooragang"}},{"arcs":[[-1348,-1357,1486,-1441,1487,1488]],"type":"Polygon","properties":{"SAL_NAME21":"Kotara"}},{"arcs":[[-1356,-1408,-1442,-1487]],"type":"Polygon","properties":{"SAL_NAME21":"Kotara South"}},{"arcs":[[-1396,1489,1490,1491]],"type":"Polygon","properties":{"SAL_NAME21":"Lakelands (NSW)"}},{"arcs":[[-1479,1492,1493,1494,1495,1496]],"type":"Polygon","properties":{"SAL_NAME21":"Lambton"}},{"arcs":[[-1384,-1397,-1492,1497]],"type":"Polygon","properties":{"SAL_NAME21":"Macquarie Hills"}},{"arcs":[[-1434,1498,-1436,-1468,1499,1500]],"type":"Polygon","properties":{"SAL_NAME21":"Maryland (Newcastle - NSW)"}},{"arcs":[[-1476,1501,1502,1503]],"type":"Polygon","properties":{"SAL_NAME21":"Maryville"}},{"arcs":[[-1450,1504,1505,1506,1507,1508,-1474,-1460]],"type":"Polygon","properties":{"SAL_NAME21":"Mayfield (Newcastle - NSW)"}},{"arcs":[[-1508,1509,1510]],"type":"Polygon","properties":{"SAL_NAME21":"Mayfield East"}},{"arcs":[[-1399,-1510,-1507,1511,1512,-1485,1513]],"type":"Polygon","properties":{"SAL_NAME21":"Mayfield North"}},{"arcs":[[-1379,1514,1515,1516,-1512,-1506,1517,1518]],"type":"Polygon","properties":{"SAL_NAME21":"Mayfield West"}},{"arcs":[[-1346,1519,-1352,-1464,1520,-1359,1521,1522,-1469,-1353]],"type":"Polygon","properties":{"SAL_NAME21":"Merewether"}},{"arcs":[[-1345,-1520]],"type":"Polygon","properties":{"SAL_NAME21":"Merewether Heights"}},{"arcs":[[-1405,-1445,1523,1524,-1418,1525,-1472]],"type":"Polygon","properties":{"SAL_NAME21":"Mount Hutton (NSW)"}},{"arcs":[[-1349,-1489,1526,-1495,-1370]],"type":"Polygon","properties":{"SAL_NAME21":"New Lambton"}},{"arcs":[[-1392,1527,-1424,1528,-1496,-1527,-1488,-1440]],"type":"Polygon","properties":{"SAL_NAME21":"New Lambton Heights"}},{"arcs":[[-1412,1529,1530,1531,1532,1533,1534]],"type":"Polygon","properties":{"SAL_NAME21":"Newcastle"}},{"arcs":[[-1533,1535]],"type":"Polygon","properties":{"SAL_NAME21":"Newcastle East"}},{"arcs":[[-1411,-1462,-1458,-1455,1536,-1530]],"type":"Polygon","properties":{"SAL_NAME21":"Newcastle West"}},{"arcs":[[-1381,1537,1538,-1493,-1478]],"type":"Polygon","properties":{"SAL_NAME21":"North Lambton"}},{"arcs":[[-1391,-1425,-1528]],"type":"Polygon","properties":{"SAL_NAME21":"Rankin Park"}},{"arcs":[[-1414,1539,-1447]],"type":"Polygon","properties":{"SAL_NAME21":"Redhead"}},{"arcs":[[-1377,1540,-1466,1541,-1516,1542]],"type":"Polygon","properties":{"SAL_NAME21":"Sandgate (NSW)"}},{"arcs":[[-1369,1543,-1500,-1467,-1541,-1376]],"type":"Polygon","properties":{"SAL_NAME21":"Shortland"}},{"arcs":[[-1427,1544]],"type":"Polygon","properties":{"SAL_NAME21":"Stockton (NSW)"}},{"arcs":[[-1362,-1413,-1535,1545]],"type":"Polygon","properties":{"SAL_NAME21":"The Hill"}},{"arcs":[[-1360,-1521,-1463,-1409]],"type":"Polygon","properties":{"SAL_NAME21":"The Junction"}},{"arcs":[[-1398,-1502,-1475,-1509,-1511]],"type":"Polygon","properties":{"SAL_NAME21":"Tighes Hill"}},{"arcs":[[-1419,-1525,1546,-1481,1547]],"type":"Polygon","properties":{"SAL_NAME21":"Tingira Heights"}},{"arcs":[[1548]],"type":"Polygon","properties":{"SAL_NAME21":"Tomago"}},{"arcs":[[-1368,-1480,-1497,-1529,-1423,1549,-1432,-1501,-1544]],"type":"Polygon","properties":{"SAL_NAME21":"Wallsend"}},{"arcs":[[-1378,-1543,-1515]],"type":"Polygon","properties":{"SAL_NAME21":"Warabrook"}},{"arcs":[[-1371,-1494,-1539,1550,-1518,-1505,-1449]],"type":"Polygon","properties":{"SAL_NAME21":"Waratah (NSW)"}},{"arcs":[[-1380,-1519,-1551,-1538]],"type":"Polygon","properties":{"SAL_NAME21":"Waratah West"}},{"arcs":[[-1395,-1473,-1526,-1417,1551,-1490]],"type":"Polygon","properties":{"SAL_NAME21":"Warners Bay"}},{"arcs":[[-1403,-1484,-1470,-1523,1552,-1415,-1446]],"type":"Polygon","properties":{"SAL_NAME21":"Whitebridge"}},{"arcs":[[-1477,-1504,1553,-1531,-1537]],"type":"Polygon","properties":{"SAL_NAME21":"Wickham (NSW)"}},{"arcs":[[-1363,1554,-1482,-1547,-1524,-1444]],"type":"Polygon","properties":{"SAL_NAME21":"Windale"}}]}}}